areacode,city,district,province,district_geocode
101010100,北京市,北京,北京市,110100
101011600,北京市,东城,北京市,110101
101011700,北京市,西城,北京市,110102
101010300,北京市,朝阳,北京市,110105
101010900,北京市,丰台,北京市,110106
101011000,北京市,石景山,北京市,110107
101010200,北京市,海淀,北京市,110108
101011400,北京市,门头沟,北京市,110109
101011200,北京市,房山,北京市,110111
101010600,北京市,通州,北京市,110112
101010400,北京市,顺义,北京市,110113
101010700,北京市,昌平,北京市,110114
101011100,北京市,大兴,北京市,110115
101010500,北京市,怀柔,北京市,110116
101011500,北京市,平谷,北京市,110117
101011300,北京市,密云,北京市,110118
101010800,北京市,延庆,北京市,110119
101030100,天津市,天津,天津市,120100
101030800,天津市,和平区,天津市,120101
101031200,天津市,河东区,天津市,120102
101031300,天津市,河西区,天津市,120103
101031500,天津市,南开区,天津市,120104
101031600,天津市,河北区,天津市,120105
101031700,天津市,红桥区,天津市,120106
101030400,天津市,东丽区,天津市,120110
101030500,天津市,西青区,天津市,120111
101031000,天津市,津南区,天津市,120112
101030600,天津市,北辰区,天津市,120113
101030200,天津市,武清区,天津市,120114
101030300,天津市,宝坻区,天津市,120115
101031100,天津市,滨海新区,天津市,120116
101030700,天津市,宁河区,天津市,120117
101030900,天津市,静海区,天津市,120118
101031400,天津市,蓟州区,天津市,120119
101090101,石家庄市,石家庄,河北省,130100
101090119,石家庄市,长安区,河北省,130102
101090120,石家庄市,桥西区,河北省,130104
101090121,石家庄市,新华区,河北省,130105
101090122,石家庄市,井陉矿区,河北省,130107
101090123,石家庄市,裕华,河北省,130108
101090115,石家庄市,藁城,河北省,130109
101090118,石家庄市,鹿泉,河北省,130110
101090104,石家庄市,栾城,河北省,130111
101090102,石家庄市,井陉,河北省,130121
101090103,石家庄市,正定,河北省,130123
101090105,石家庄市,行唐,河北省,130125
101090106,石家庄市,灵寿,河北省,130126
101090107,石家庄市,高邑,河北省,130127
101090108,石家庄市,深泽,河北省,130128
101090109,石家庄市,赞皇,河北省,130129
101090110,石家庄市,无极,河北省,130130
101090111,石家庄市,平山,河北省,130131
101090112,石家庄市,元氏,河北省,130132
101090113,石家庄市,赵县,河北省,130133
101090114,石家庄市,辛集,河北省,130181
101090116,石家庄市,晋州,河北省,130183
101090117,石家庄市,新乐,河北省,130184
101090501,唐山市,唐山,河北省,130200
101090513,唐山市,路南区,河北省,130202
101090514,唐山市,路北区,河北省,130203
101090515,唐山市,古冶,河北省,130204
101090516,唐山市,开平区,河北省,130205
101090502,唐山市,丰南,河北省,130207
101090503,唐山市,丰润,河北省,130208
101090509,唐山市,曹妃甸,河北省,130209
101090505,唐山市,滦南,河北省,130224
101090506,唐山市,乐亭,河北省,130225
101090507,唐山市,迁西,河北省,130227
101090508,唐山市,玉田,河北省,130229
101090510,唐山市,遵化,河北省,130281
101090511,唐山市,迁安,河北省,130283
101090530,唐山市,滦州,河北省,130284
101091101,秦皇岛市,秦皇岛,河北省,130300
101091107,秦皇岛市,海港区,河北省,130302
101091108,秦皇岛市,山海关,河北省,130303
101091106,秦皇岛市,北戴河,河北省,130304
101091104,秦皇岛市,抚宁,河北省,130306
101091102,秦皇岛市,青龙,河北省,130321
101091103,秦皇岛市,昌黎,河北省,130322
101091105,秦皇岛市,卢龙,河北省,130324
101091001,邯郸市,邯郸,河北省,130400
101091017,邯郸市,邯山区,河北省,130402
101091018,邯郸市,丛台区,河北省,130403
101091019,邯郸市,复兴区,河北省,130404
101091002,邯郸市,峰峰,河北省,130406
101091008,邯郸市,肥乡,河北省,130407
101091009,邯郸市,永年,河北省,130408
101091003,邯郸市,临漳,河北省,130423
101091004,邯郸市,成安,河北省,130424
101091005,邯郸市,大名,河北省,130425
101091006,邯郸市,涉县,河北省,130426
101091007,邯郸市,磁县,河北省,130427
101091010,邯郸市,邱县,河北省,130430
101091011,邯郸市,鸡泽,河北省,130431
101091012,邯郸市,广平,河北省,130432
101091013,邯郸市,馆陶,河北省,130433
101091014,邯郸市,魏县,河北省,130434
101091015,邯郸市,曲周,河北省,130435
101091016,邯郸市,武安,河北省,130481
101090901,邢台市,邢台,河北省,130500
101090903,邢台市,桥东区,河北省,130502
101090919,邢台市,桥西区,河北省,130503
101090930,邢台市,邢台县,河北省,130521
101090902,邢台市,临城,河北省,130522
101090904,邢台市,内丘,河北省,130523
101090905,邢台市,柏乡,河北省,130524
101090906,邢台市,隆尧,河北省,130525
101090918,邢台市,任县,河北省,130526
101090907,邢台市,南和,河北省,130527
101090908,邢台市,宁晋,河北省,130528
101090909,邢台市,巨鹿,河北省,130529
101090910,邢台市,新河,河北省,130530
101090911,邢台市,广宗,河北省,130531
101090912,邢台市,平乡,河北省,130532
101090913,邢台市,威县,河北省,130533
101090914,邢台市,清河,河北省,130534
101090915,邢台市,临西,河北省,130535
101090916,邢台市,南宫,河北省,130581
101090917,邢台市,沙河,河北省,130582
101090201,保定市,保定,河北省,130600
101090208,保定市,竞秀,河北省,130602
101090213,保定市,莲池,河北省,130606
101090202,保定市,满城,河北省,130607
101090224,保定市,清苑,河北省,130608
101090204,保定市,徐水,河北省,130609
101090222,保定市,涞水,河北省,130623
101090203,保定市,阜平,河北省,130624
101090223,保定市,定兴,河北省,130626
101090205,保定市,唐县,河北省,130627
101090206,保定市,高阳,河北省,130628
101091202,保定市,容城,河北省,130629
101090209,保定市,涞源,河北省,130630
101090210,保定市,望都,河北省,130631
101091203,保定市,安新,河北省,130632
101090212,保定市,易县,河北省,130633
101090214,保定市,曲阳,河北省,130634
101090215,保定市,蠡县,河北省,130635
101090216,保定市,顺平,河北省,130636
101090225,保定市,博野,河北省,130637
101091204,保定市,雄县,河北省,130638
101090218,保定市,涿州,河北省,130681
101090219,保定市,定州,河北省,130682
101090220,保定市,安国,河北省,130683
101090221,保定市,高碑店,河北省,130684
101090301,张家口市,张家口,河北省,130700
101090315,张家口市,桥东区,河北省,130702
101090316,张家口市,桥西区,河北省,130703
101090302,张家口市,宣化,河北省,130705
101090317,张家口市,下花园,河北省,130706
101090310,张家口市,万全,河北省,130708
101090314,张家口市,崇礼,河北省,130709
101090303,张家口市,张北,河北省,130722
101090304,张家口市,康保,河北省,130723
101090305,张家口市,沽源,河北省,130724
101090306,张家口市,尚义,河北省,130725
101090307,张家口市,蔚县,河北省,130726
101090308,张家口市,阳原,河北省,130727
101090309,张家口市,怀安,河北省,130728
101090311,张家口市,怀来,河北省,130730
101090312,张家口市,涿鹿,河北省,130731
101090313,张家口市,赤城,河北省,130732
101090402,承德市,承德,河北省,130800
101090401,承德市,双桥,河北省,130802
101090411,承德市,双滦,河北省,130803
101090412,承德市,鹰手营子,河北省,130804
101090403,承德市,承德县,河北省,130821
101090404,承德市,兴隆,河北省,130822
101090406,承德市,滦平,河北省,130824
101090407,承德市,隆化,河北省,130825
101090408,承德市,丰宁,河北省,130826
101090409,承德市,宽城,河北省,130827
101090410,承德市,围场,河北省,130828
101090405,承德市,平泉,河北省,130881
101090701,沧州市,沧州,河北省,130900
101090715,沧州市,新华区,河北省,130902
101090717,沧州市,运河,河北省,130903
101090716,沧州市,沧县,河北省,130921
101090702,沧州市,青县,河北省,130922
101090703,沧州市,东光,河北省,130923
101090704,沧州市,海兴,河北省,130924
101090705,沧州市,盐山,河北省,130925
101090706,沧州市,肃宁,河北省,130926
101090707,沧州市,南皮,河北省,130927
101090708,沧州市,吴桥,河北省,130928
101090709,沧州市,献县,河北省,130929
101090710,沧州市,孟村,河北省,130930
101090711,沧州市,泊头,河北省,130981
101090712,沧州市,任丘,河北省,130982
101090713,沧州市,黄骅,河北省,130983
101090714,沧州市,河间,河北省,130984
101090601,廊坊市,廊坊,河北省,131000
101090610,廊坊市,安次,河北省,131002
101090611,廊坊市,广阳,河北省,131003
101090602,廊坊市,固安,河北省,131022
101090603,廊坊市,永清,河北省,131023
101090604,廊坊市,香河,河北省,131024
101090605,廊坊市,大城,河北省,131025
101090606,廊坊市,文安,河北省,131026
101090607,廊坊市,大厂,河北省,131028
101090608,廊坊市,霸州,河北省,131081
101090609,廊坊市,三河,河北省,131082
101090801,衡水市,衡水,河北省,131100
101090812,衡水市,桃城,河北省,131102
101090810,衡水市,冀州,河北省,131103
101090802,衡水市,枣强,河北省,131121
101090803,衡水市,武邑,河北省,131122
101090804,衡水市,武强,河北省,131123
101090805,衡水市,饶阳,河北省,131124
101090806,衡水市,安平,河北省,131125
101090807,衡水市,故城,河北省,131126
101090808,衡水市,景县,河北省,131127
101090809,衡水市,阜城,河北省,131128
101090811,衡水市,深州,河北省,131182
101100101,太原市,太原,山西省,140100
101100107,太原市,小店,山西省,140105
101100108,太原市,迎泽,山西省,140106
101100109,太原市,杏花岭,山西省,140107
101100106,太原市,尖草坪,山西省,140108
101100110,太原市,万柏林,山西省,140109
101100111,太原市,晋源,山西省,140110
101100102,太原市,清徐,山西省,140121
101100103,太原市,阳曲,山西省,140122
101100104,太原市,娄烦,山西省,140123
101100105,太原市,古交,山西省,140181
101100201,大同市,大同,山西省,140200
101100211,大同市,新荣,山西省,140212
101100230,大同市,平城,山西省,140213
101100231,大同市,云冈,山西省,140214
101100232,大同市,云州,山西省,140215
101100202,大同市,阳高,山西省,140221
101100204,大同市,天镇,山西省,140222
101100205,大同市,广灵,山西省,140223
101100206,大同市,灵丘,山西省,140224
101100207,大同市,浑源,山西省,140225
101100208,大同市,左云,山西省,140226
101100301,阳泉市,阳泉,山西省,140300
101100330,阳泉市,城区,山西省,140302
101100304,阳泉市,矿区,山西省,140303
101100305,阳泉市,郊区,山西省,140311
101100303,阳泉市,平定,山西省,140321
101100302,阳泉市,盂县,山西省,140322
101100501,长治市,长治,山西省,140400
101100530,长治市,潞州,山西省,140403
101100531,长治市,上党,山西省,140404
101100503,长治市,屯留,山西省,140405
101100504,长治市,潞城,山西省,140406
101100505,长治市,襄垣,山西省,140423
101100506,长治市,平顺,山西省,140425
101100502,长治市,黎城,山西省,140426
101100511,长治市,壶关,山西省,140427
101100509,长治市,长子,山西省,140428
101100507,长治市,武乡,山西省,140429
101100508,长治市,沁县,山西省,140430
101100510,长治市,沁源,山西省,140431
101100601,晋城市,晋城,山西省,140500
101100630,晋城市,城区,山西省,140502
101100602,晋城市,沁水,山西省,140521
101100603,晋城市,阳城,山西省,140522
101100604,晋城市,陵川,山西省,140524
101100606,晋城市,泽州,山西省,140525
101100605,晋城市,高平,山西省,140581
101100901,朔州市,朔州,山西省,140600
101100907,朔州市,朔城,山西省,140602
101100902,朔州市,平鲁,山西省,140603
101100903,朔州市,山阴,山西省,140621
101100905,朔州市,应县,山西省,140622
101100904,朔州市,右玉,山西省,140623
101100906,朔州市,怀仁,山西省,140681
101100401,晋中市,晋中,山西省,140700
101100402,晋中市,榆次,山西省,140702
101100403,晋中市,榆社,山西省,140721
101100404,晋中市,左权,山西省,140722
101100405,晋中市,和顺,山西省,140723
101100406,晋中市,昔阳,山西省,140724
101100407,晋中市,寿阳,山西省,140725
101100408,晋中市,太谷,山西省,140726
101100409,晋中市,祁县,山西省,140727
101100410,晋中市,平遥,山西省,140728
101100411,晋中市,灵石,山西省,140729
101100412,晋中市,介休,山西省,140781
101100801,运城市,运城,山西省,140800
101100814,运城市,盐湖,山西省,140802
101100802,运城市,临猗,山西省,140821
101100804,运城市,万荣,山西省,140822
101100808,运城市,闻喜,山西省,140823
101100803,运城市,稷山,山西省,140824
101100806,运城市,新绛,山西省,140825
101100807,运城市,绛县,山西省,140826
101100809,运城市,垣曲,山西省,140827
101100812,运城市,夏县,山西省,140828
101100813,运城市,平陆,山西省,140829
101100811,运城市,芮城,山西省,140830
101100810,运城市,永济,山西省,140881
101100805,运城市,河津,山西省,140882
101101001,忻州市,忻州,山西省,140900
101101016,忻州市,忻府,山西省,140902
101101002,忻州市,定襄,山西省,140921
101101003,忻州市,五台,山西省,140922
101101008,忻州市,代县,山西省,140923
101101009,忻州市,繁峙,山西省,140924
101101007,忻州市,宁武,山西省,140925
101101012,忻州市,静乐,山西省,140926
101101006,忻州市,神池,山西省,140927
101101014,忻州市,五寨,山西省,140928
101101013,忻州市,岢岚,山西省,140929
101101004,忻州市,河曲,山西省,140930
101101011,忻州市,保德,山西省,140931
101101005,忻州市,偏关,山西省,140932
101101015,忻州市,原平,山西省,140981
101100701,临汾市,临汾,山西省,141000
101100718,临汾市,尧都,山西省,141002
101100702,临汾市,曲沃,山西省,141021
101100713,临汾市,翼城,山西省,141022
101100707,临汾市,襄汾,山西省,141023
101100710,临汾市,洪洞,山西省,141024
101100717,临汾市,古县,山西省,141025
101100716,临汾市,安泽,山西省,141026
101100715,临汾市,浮山,山西省,141027
101100706,临汾市,吉县,山西省,141028
101100712,临汾市,乡宁,山西省,141029
101100705,临汾市,大宁,山西省,141030
101100704,临汾市,隰县,山西省,141031
101100703,临汾市,永和,山西省,141032
101100708,临汾市,蒲县,山西省,141033
101100709,临汾市,汾西,山西省,141034
101100714,临汾市,侯马,山西省,141081
101100711,临汾市,霍州,山西省,141082
101101100,吕梁市,吕梁,山西省,141100
101101101,吕梁市,离石,山西省,141102
101101112,吕梁市,文水,山西省,141121
101101113,吕梁市,交城,山西省,141122
101101103,吕梁市,兴县,山西省,141123
101101102,吕梁市,临县,山西省,141124
101101105,吕梁市,柳林,山西省,141125
101101106,吕梁市,石楼,山西省,141126
101101104,吕梁市,岚县,山西省,141127
101101107,吕梁市,方山,山西省,141128
101101109,吕梁市,中阳,山西省,141129
101101108,吕梁市,交口,山西省,141130
101101110,吕梁市,孝义,山西省,141181
101101111,吕梁市,汾阳,山西省,141182
101080101,呼和浩特市,呼和浩特,内蒙古自治区,150100
101080108,呼和浩特市,新城区,内蒙古自治区,150102
101080109,呼和浩特市,回民区,内蒙古自治区,150103
101080110,呼和浩特市,玉泉区,内蒙古自治区,150104
101080106,呼和浩特市,赛罕区,内蒙古自治区,150105
101080102,呼和浩特市,土左旗,内蒙古自治区,150121
101080103,呼和浩特市,托克托,内蒙古自治区,150122
101080104,呼和浩特市,和林格尔,内蒙古自治区,150123
101080105,呼和浩特市,清水河,内蒙古自治区,150124
101080107,呼和浩特市,武川,内蒙古自治区,150125
101080201,包头市,包头,内蒙古自治区,150200
101080208,包头市,东河区,内蒙古自治区,150202
101080209,包头市,昆都仑区,内蒙古自治区,150203
101080210,包头市,青山区,内蒙古自治区,150204
101080211,包头市,石拐区,内蒙古自治区,150205
101080202,包头市,白云鄂博,内蒙古自治区,150206
101080212,包头市,九原区,内蒙古自治区,150207
101080204,包头市,土右旗,内蒙古自治区,150221
101080205,包头市,固阳,内蒙古自治区,150222
101080206,包头市,达茂旗,内蒙古自治区,150223
101080301,乌海市,乌海,内蒙古自治区,150300
101080302,乌海市,海勃湾区,内蒙古自治区,150302
101080303,乌海市,海南区,内蒙古自治区,150303
101080304,乌海市,乌达,内蒙古自治区,150304
101080601,赤峰市,赤峰,内蒙古自治区,150400
101080602,赤峰市,红山,内蒙古自治区,150402
101080616,赤峰市,元宝山,内蒙古自治区,150403
101080617,赤峰市,松山,内蒙古自治区,150404
101080603,赤峰市,阿鲁旗,内蒙古自治区,150421
101080605,赤峰市,巴林左旗,内蒙古自治区,150422
101080606,赤峰市,巴林右旗,内蒙古自治区,150423
101080607,赤峰市,林西,内蒙古自治区,150424
101080608,赤峰市,克什克腾旗,内蒙古自治区,150425
101080609,赤峰市,翁牛特旗,内蒙古自治区,150426
101080611,赤峰市,喀喇沁旗,内蒙古自治区,150428
101080613,赤峰市,宁城,内蒙古自治区,150429
101080614,赤峰市,敖汉旗,内蒙古自治区,150430
101080501,通辽市,通辽,内蒙古自治区,150500
101080510,通辽市,科尔沁区,内蒙古自治区,150502
101080503,通辽市,科左中旗,内蒙古自治区,150521
101080504,通辽市,科左后旗,内蒙古自治区,150522
101080506,通辽市,开鲁,内蒙古自治区,150523
101080507,通辽市,库伦旗,内蒙古自治区,150524
101080508,通辽市,奈曼旗,内蒙古自治区,150525
101080509,通辽市,扎鲁特旗,内蒙古自治区,150526
101080512,通辽市,霍林郭勒,内蒙古自治区,150581
101080701,鄂尔多斯市,鄂尔多斯,内蒙古自治区,150600
101080713,鄂尔多斯市,东胜,内蒙古自治区,150602
101080714,鄂尔多斯市,康巴什,内蒙古自治区,150603
101080703,鄂尔多斯市,达拉特旗,内蒙古自治区,150621
101080704,鄂尔多斯市,准格尔旗,内蒙古自治区,150622
101080705,鄂尔多斯市,鄂前旗,内蒙古自治区,150623
101080708,鄂尔多斯市,鄂托克旗,内蒙古自治区,150624
101080709,鄂尔多斯市,杭锦旗,内蒙古自治区,150625
101080710,鄂尔多斯市,乌审旗,内蒙古自治区,150626
101080711,鄂尔多斯市,伊金霍洛,内蒙古自治区,150627
101081013,呼伦贝尔市,呼伦贝尔,内蒙古自治区,150700
101081001,呼伦贝尔市,海拉尔,内蒙古自治区,150702
101081017,呼伦贝尔市,扎赉诺尔,内蒙古自治区,150703
101081003,呼伦贝尔市,阿荣旗,内蒙古自治区,150721
101081004,呼伦贝尔市,莫力达瓦,内蒙古自治区,150722
101081005,呼伦贝尔市,鄂伦春旗,内蒙古自治区,150723
101081006,呼伦贝尔市,鄂温克旗,内蒙古自治区,150724
101081007,呼伦贝尔市,陈旗,内蒙古自治区,150725
101081008,呼伦贝尔市,新左旗,内蒙古自治区,150726
101081009,呼伦贝尔市,新右旗,内蒙古自治区,150727
101081010,呼伦贝尔市,满洲里,内蒙古自治区,150781
101081011,呼伦贝尔市,牙克石,内蒙古自治区,150782
101081012,呼伦贝尔市,扎兰屯,内蒙古自治区,150783
101081014,呼伦贝尔市,额尔古纳,内蒙古自治区,150784
101081015,呼伦贝尔市,根河,内蒙古自治区,150785
101080811,巴彦淖尔市,巴彦淖尔,内蒙古自治区,150800
101080801,巴彦淖尔市,临河,内蒙古自治区,150802
101080802,巴彦淖尔市,五原,内蒙古自治区,150821
101080803,巴彦淖尔市,磴口,内蒙古自治区,150822
101080804,巴彦淖尔市,乌前旗,内蒙古自治区,150823
101080806,巴彦淖尔市,乌中旗,内蒙古自治区,150824
101080807,巴彦淖尔市,乌后旗,内蒙古自治区,150825
101080810,巴彦淖尔市,杭锦后旗,内蒙古自治区,150826
101080405,乌兰察布市,乌兰察布,内蒙古自治区,150900
101080401,乌兰察布市,集宁,内蒙古自治区,150902
101080402,乌兰察布市,卓资,内蒙古自治区,150921
101080403,乌兰察布市,化德,内蒙古自治区,150922
101080404,乌兰察布市,商都,内蒙古自治区,150923
101080406,乌兰察布市,兴和,内蒙古自治区,150924
101080407,乌兰察布市,凉城,内蒙古自治区,150925
101080408,乌兰察布市,察右前旗,内蒙古自治区,150926
101080409,乌兰察布市,察右中旗,内蒙古自治区,150927
101080410,乌兰察布市,察右后旗,内蒙古自治区,150928
101080411,乌兰察布市,四子王旗,内蒙古自治区,150929
101080412,乌兰察布市,丰镇,内蒙古自治区,150981
101081108,兴安盟,兴安盟,内蒙古自治区,152200
101081101,兴安盟,乌兰浩特,内蒙古自治区,152201
101081102,兴安盟,阿尔山,内蒙古自治区,152202
101081109,兴安盟,科右前旗,内蒙古自治区,152221
101081103,兴安盟,科右中旗,内蒙古自治区,152222
101081105,兴安盟,扎赉特旗,内蒙古自治区,152223
101081107,兴安盟,突泉,内蒙古自治区,152224
101080902,锡林郭勒盟,锡林郭勒,内蒙古自治区,152500
101080903,锡林郭勒盟,二连浩特,内蒙古自治区,152501
101080901,锡林郭勒盟,锡林浩特,内蒙古自治区,152502
101080904,锡林郭勒盟,阿巴嘎旗,内蒙古自治区,152522
101080906,锡林郭勒盟,苏左旗,内蒙古自治区,152523
101080907,锡林郭勒盟,苏右旗,内蒙古自治区,152524
101080909,锡林郭勒盟,东乌旗,内蒙古自治区,152525
101080910,锡林郭勒盟,西乌旗,内蒙古自治区,152526
101080911,锡林郭勒盟,太仆寺旗,内蒙古自治区,152527
101080912,锡林郭勒盟,镶黄旗,内蒙古自治区,152528
101080913,锡林郭勒盟,正镶白旗,内蒙古自治区,152529
101080914,锡林郭勒盟,正蓝旗,内蒙古自治区,152530
101080915,锡林郭勒盟,多伦,内蒙古自治区,152531
101081213,阿拉善盟,阿拉善,内蒙古自治区,152900
101081201,阿拉善盟,阿左旗,内蒙古自治区,152921
101081202,阿拉善盟,阿右旗,内蒙古自治区,152922
101081203,阿拉善盟,额济纳旗,内蒙古自治区,152923
101070101,沈阳市,沈阳,辽宁省,210100
101070107,沈阳市,和平区,辽宁省,210102
101070108,沈阳市,沈河区,辽宁省,210103
101070109,沈阳市,大东区,辽宁省,210104
101070110,沈阳市,皇姑区,辽宁省,210105
101070111,沈阳市,铁西区,辽宁省,210106
101070112,沈阳市,苏家屯,辽宁省,210111
101070102,沈阳市,浑南,辽宁省,210112
101070113,沈阳市,沈北新区,辽宁省,210113
101070114,沈阳市,于洪区,辽宁省,210114
101070103,沈阳市,辽中区,辽宁省,210115
101070104,沈阳市,康平,辽宁省,210123
101070105,沈阳市,法库,辽宁省,210124
101070106,沈阳市,新民,辽宁省,210181
101070201,大连市,大连,辽宁省,210200
101070208,大连市,中山区,辽宁省,210202
101070209,大连市,西岗区,辽宁省,210203
101070210,大连市,沙河口,辽宁省,210204
101070211,大连市,甘井子,辽宁省,210211
101070205,大连市,旅顺,辽宁省,210212
101070203,大连市,金州,辽宁省,210213
101070204,大连市,普兰店,辽宁省,210214
101070206,大连市,长海,辽宁省,210224
101070202,大连市,瓦房店,辽宁省,210281
101070207,大连市,庄河,辽宁省,210283
101070301,鞍山市,鞍山,辽宁省,210300
101070305,鞍山市,铁东区,辽宁省,210302
101070306,鞍山市,铁西区,辽宁省,210303
101070307,鞍山市,立山,辽宁省,210304
101070308,鞍山市,千山,辽宁省,210311
101070302,鞍山市,台安,辽宁省,210321
101070303,鞍山市,岫岩,辽宁省,210323
101070304,鞍山市,海城,辽宁省,210381
101070401,抚顺市,抚顺,辽宁省,210400
101070405,抚顺市,新抚区,辽宁省,210402
101070406,抚顺市,东洲区,辽宁省,210403
101070407,抚顺市,望花区,辽宁省,210404
101070408,抚顺市,顺城区,辽宁省,210411
101070430,抚顺市,抚顺县,辽宁省,210421
101070402,抚顺市,新宾,辽宁省,210422
101070403,抚顺市,清原,辽宁省,210423
101070501,本溪市,本溪,辽宁省,210500
101070503,本溪市,平山区,辽宁省,210502
101070505,本溪市,溪湖,辽宁省,210503
101070506,本溪市,明山,辽宁省,210504
101070507,本溪市,南芬,辽宁省,210505
101070502,本溪市,本溪县,辽宁省,210521
101070504,本溪市,桓仁,辽宁省,210522
101070601,丹东市,丹东,辽宁省,210600
101070605,丹东市,元宝,辽宁省,210602
101070606,丹东市,振兴,辽宁省,210603
101070607,丹东市,振安,辽宁省,210604
101070603,丹东市,宽甸,辽宁省,210624
101070604,丹东市,东港,辽宁省,210681
101070602,丹东市,凤城,辽宁省,210682
101070701,锦州市,锦州,辽宁省,210700
101070703,锦州市,古塔,辽宁省,210702
101070707,锦州市,凌河,辽宁省,210703
101070708,锦州市,太和区,辽宁省,210711
101070705,锦州市,黑山,辽宁省,210726
101070704,锦州市,义县,辽宁省,210727
101070702,锦州市,凌海,辽宁省,210781
101070706,锦州市,北镇,辽宁省,210782
101070801,营口市,营口,辽宁省,210800
101070804,营口市,站前区,辽宁省,210802
101070805,营口市,西市区,辽宁省,210803
101070806,营口市,鲅鱼圈,辽宁省,210804
101070807,营口市,老边区,辽宁省,210811
101070803,营口市,盖州,辽宁省,210881
101070802,营口市,大石桥,辽宁省,210882
101070901,阜新市,阜新,辽宁省,210900
101070903,阜新市,海州区,辽宁省,210902
101070904,阜新市,新邱,辽宁省,210903
101070905,阜新市,太平,辽宁省,210904
101070906,阜新市,清河门,辽宁省,210905
101070907,阜新市,细河,辽宁省,210911
101070930,阜新市,阜新县,辽宁省,210921
101070902,阜新市,彰武,辽宁省,210922
101071001,辽阳市,辽阳,辽宁省,211000
101071005,辽阳市,白塔区,辽宁省,211002
101071006,辽阳市,文圣区,辽宁省,211003
101071007,辽阳市,宏伟区,辽宁省,211004
101071004,辽阳市,弓长岭,辽宁省,211005
101071008,辽阳市,太子河,辽宁省,211011
101071002,辽阳市,辽阳县,辽宁省,211021
101071003,辽阳市,灯塔市,辽宁省,211081
101071301,盘锦市,盘锦,辽宁省,211100
101071304,盘锦市,双台子,辽宁省,211102
101071305,盘锦市,兴隆台,辽宁省,211103
101071302,盘锦市,大洼,辽宁省,211104
101071303,盘锦市,盘山,辽宁省,211122
101071101,铁岭市,铁岭,辽宁省,211200
101071106,铁岭市,银州,辽宁省,211202
101071107,铁岭市,清河区,辽宁省,211204
101071130,铁岭市,铁岭县,辽宁省,211221
101071104,铁岭市,西丰,辽宁省,211223
101071103,铁岭市,昌图,辽宁省,211224
101071105,铁岭市,调兵山,辽宁省,211281
101071102,铁岭市,开原,辽宁省,211282
101071201,朝阳市,朝阳,辽宁省,211300
101071202,朝阳市,双塔,辽宁省,211302
101071206,朝阳市,龙城,辽宁省,211303
101071230,朝阳市,朝阳县,辽宁省,211321
101071207,朝阳市,建平,辽宁省,211322
101071204,朝阳市,喀左,辽宁省,211324
101071205,朝阳市,北票,辽宁省,211381
101071203,朝阳市,凌源,辽宁省,211382
101071401,葫芦岛市,葫芦岛,辽宁省,211400
101071405,葫芦岛市,连山区,辽宁省,211402
101071406,葫芦岛市,龙港,辽宁省,211403
101071407,葫芦岛市,南票,辽宁省,211404
101071403,葫芦岛市,绥中,辽宁省,211421
101071402,葫芦岛市,建昌,辽宁省,211422
101071404,葫芦岛市,兴城,辽宁省,211481
101060101,长春市,长春,吉林省,220100
101060108,长春市,南关,吉林省,220102
101060109,长春市,宽城区,吉林省,220103
101060110,长春市,朝阳区,吉林省,220104
101060107,长春市,二道区,吉林省,220105
101060111,长春市,绿园区,吉林省,220106
101060106,长春市,双阳,吉林省,220112
101060104,长春市,九台,吉林省,220113
101060102,长春市,农安,吉林省,220122
101060105,长春市,榆树,吉林省,220182
101060103,长春市,德惠,吉林省,220183
101060201,吉林市,吉林,吉林省,220200
101060207,吉林市,昌邑区,吉林省,220202
101060208,吉林市,龙潭,吉林省,220203
101060209,吉林市,船营,吉林省,220204
101060210,吉林市,丰满,吉林省,220211
101060203,吉林市,永吉,吉林省,220221
101060204,吉林市,蛟河,吉林省,220281
101060206,吉林市,桦甸,吉林省,220282
101060202,吉林市,舒兰,吉林省,220283
101060205,吉林市,磐石,吉林省,220284
101060401,四平市,四平,吉林省,220300
101060406,四平市,铁西,吉林省,220302
101060407,四平市,铁东,吉林省,220303
101060403,四平市,梨树,吉林省,220322
101060405,四平市,伊通,吉林省,220323
101060404,四平市,公主岭,吉林省,220381
101060402,四平市,双辽,吉林省,220382
101060701,辽源市,辽源,吉林省,220400
101060704,辽源市,龙山区,吉林省,220402
101060705,辽源市,西安区,吉林省,220403
101060702,辽源市,东丰,吉林省,220421
101060703,辽源市,东辽,吉林省,220422
101060501,通化市,通化,吉林省,220500
101060507,通化市,东昌区,吉林省,220502
101060508,通化市,二道江,吉林省,220503
101060506,通化市,通化县,吉林省,220521
101060504,通化市,辉南,吉林省,220523
101060503,通化市,柳河,吉林省,220524
101060502,通化市,梅河口,吉林省,220581
101060505,通化市,集安,吉林省,220582
101060901,白山市,白山,吉林省,220600
101060908,白山市,浑江,吉林省,220602
101060907,白山市,江源,吉林省,220605
101060906,白山市,抚松,吉林省,220621
101060902,白山市,靖宇,吉林省,220622
101060905,白山市,长白,吉林省,220623
101060903,白山市,临江,吉林省,220681
101060801,松原市,松原,吉林省,220700
101060806,松原市,宁江,吉林省,220702
101060803,松原市,前郭,吉林省,220721
101060804,松原市,长岭,吉林省,220722
101060802,松原市,乾安,吉林省,220723
101060805,松原市,扶余,吉林省,220781
101060601,白城市,白城,吉林省,220800
101060606,白城市,洮北,吉林省,220802
101060604,白城市,镇赉,吉林省,220821
101060605,白城市,通榆,吉林省,220822
101060602,白城市,洮南,吉林省,220881
101060603,白城市,大安,吉林省,220882
101060306,延边朝鲜族自治州,延边,吉林省,222400
101060301,延边朝鲜族自治州,延吉,吉林省,222401
101060309,延边朝鲜族自治州,图们,吉林省,222402
101060302,延边朝鲜族自治州,敦化,吉林省,222403
101060308,延边朝鲜族自治州,珲春,吉林省,222404
101060307,延边朝鲜族自治州,龙井,吉林省,222405
101060305,延边朝鲜族自治州,和龙,吉林省,222406
101060304,延边朝鲜族自治州,汪清,吉林省,222424
101060303,延边朝鲜族自治州,安图,吉林省,222426
101050101,哈尔滨市,哈尔滨,黑龙江省,230100
101050114,哈尔滨市,道里区,黑龙江省,230102
101050115,哈尔滨市,南岗区,黑龙江省,230103
101050116,哈尔滨市,道外区,黑龙江省,230104
101050117,哈尔滨市,平房区,黑龙江省,230108
101050118,哈尔滨市,松北区,黑龙江省,230109
101050119,哈尔滨市,香坊区,黑龙江省,230110
101050103,哈尔滨市,呼兰,黑龙江省,230111
101050104,哈尔滨市,阿城,黑龙江省,230112
101050102,哈尔滨市,双城区,黑龙江省,230113
101050106,哈尔滨市,依兰,黑龙江省,230123
101050109,哈尔滨市,方正,黑龙江省,230124
101050105,哈尔滨市,宾县,黑龙江省,230125
101050107,哈尔滨市,巴彦,黑龙江省,230126
101050113,哈尔滨市,木兰,黑龙江省,230127
101050108,哈尔滨市,通河,黑龙江省,230128
101050110,哈尔滨市,延寿,黑龙江省,230129
101050111,哈尔滨市,尚志,黑龙江省,230183
101050112,哈尔滨市,五常,黑龙江省,230184
101050201,齐齐哈尔市,齐齐哈尔,黑龙江省,230200
101050211,齐齐哈尔市,龙沙,黑龙江省,230202
101050212,齐齐哈尔市,建华,黑龙江省,230203
101050213,齐齐哈尔市,铁锋,黑龙江省,230204
101050214,齐齐哈尔市,昂昂溪,黑龙江省,230205
101050215,齐齐哈尔市,富拉尔基,黑龙江省,230206
101050216,齐齐哈尔市,碾子山,黑龙江省,230207
101050217,齐齐哈尔市,梅里斯,黑龙江省,230208
101050203,齐齐哈尔市,龙江,黑龙江省,230221
101050206,齐齐哈尔市,依安,黑龙江省,230223
101050210,齐齐哈尔市,泰来,黑龙江省,230224
101050204,齐齐哈尔市,甘南县,黑龙江省,230225
101050205,齐齐哈尔市,富裕,黑龙江省,230227
101050208,齐齐哈尔市,克山,黑龙江省,230229
101050209,齐齐哈尔市,克东,黑龙江省,230230
101050207,齐齐哈尔市,拜泉,黑龙江省,230231
101050202,齐齐哈尔市,讷河,黑龙江省,230281
101051101,鸡西市,鸡西,黑龙江省,230300
101051105,鸡西市,鸡冠区,黑龙江省,230302
101051106,鸡西市,恒山区,黑龙江省,230303
101051107,鸡西市,滴道区,黑龙江省,230304
101051108,鸡西市,梨树区,黑龙江省,230305
101051109,鸡西市,城子河,黑龙江省,230306
101051110,鸡西市,麻山,黑龙江省,230307
101051104,鸡西市,鸡东,黑龙江省,230321
101051102,鸡西市,虎林,黑龙江省,230381
101051103,鸡西市,密山,黑龙江省,230382
101051201,鹤岗市,鹤岗,黑龙江省,230400
101051204,鹤岗市,向阳区,黑龙江省,230402
101051205,鹤岗市,工农区,黑龙江省,230403
101051206,鹤岗市,南山区,黑龙江省,230404
101051207,鹤岗市,兴安区,黑龙江省,230405
101051208,鹤岗市,东山区,黑龙江省,230406
101051209,鹤岗市,兴山区,黑龙江省,230407
101051203,鹤岗市,萝北,黑龙江省,230421
101051202,鹤岗市,绥滨,黑龙江省,230422
101051301,双鸭山市,双鸭山,黑龙江省,230500
101051306,双鸭山市,尖山区,黑龙江省,230502
101051307,双鸭山市,岭东区,黑龙江省,230503
101051308,双鸭山市,四方台,黑龙江省,230505
101051309,双鸭山市,宝山区,黑龙江省,230506
101051302,双鸭山市,集贤,黑龙江省,230521
101051305,双鸭山市,友谊,黑龙江省,230522
101051303,双鸭山市,宝清,黑龙江省,230523
101051304,双鸭山市,饶河,黑龙江省,230524
101050901,大庆市,大庆,黑龙江省,230600
101050906,大庆市,萨尔图,黑龙江省,230602
101050907,大庆市,龙凤区,黑龙江省,230603
101050908,大庆市,让胡路,黑龙江省,230604
101050909,大庆市,红岗区,黑龙江省,230605
101050910,大庆市,大同区,黑龙江省,230606
101050903,大庆市,肇州,黑龙江省,230621
101050904,大庆市,肇源,黑龙江省,230622
101050902,大庆市,林甸,黑龙江省,230623
101050905,大庆市,杜尔伯特,黑龙江省,230624
101050801,伊春市,伊春,黑龙江省,230700
101050830,伊春市,伊春区,黑龙江省,230702
101050806,伊春市,南岔区,黑龙江省,230703
101050807,伊春市,友好区,黑龙江省,230704
101050808,伊春市,西林区,黑龙江省,230705
101050809,伊春市,翠峦,黑龙江省,230706
101050810,伊春市,新青,黑龙江省,230707
101050811,伊春市,美溪,黑龙江省,230708
101050812,伊春市,金山屯,黑龙江省,230709
101050803,伊春市,五营,黑龙江省,230710
101050813,伊春市,乌马河,黑龙江省,230711
101050814,伊春市,汤旺河,黑龙江省,230712
101050815,伊春市,带岭,黑龙江省,230713
101050802,伊春市,乌伊岭,黑龙江省,230714
101050816,伊春市,红星区,黑龙江省,230715
101050817,伊春市,上甘岭,黑龙江省,230716
101050805,伊春市,嘉荫,黑龙江省,230722
101050804,伊春市,铁力,黑龙江省,230781
101050401,佳木斯市,佳木斯,黑龙江省,230800
101050408,佳木斯市,向阳区,黑龙江省,230803
101050409,佳木斯市,前进区,黑龙江省,230804
101050410,佳木斯市,东风区,黑龙江省,230805
101050411,佳木斯市,郊区,黑龙江省,230811
101050405,佳木斯市,桦南,黑龙江省,230822
101050404,佳木斯市,桦川,黑龙江省,230826
101050402,佳木斯市,汤原,黑龙江省,230828
101050406,佳木斯市,同江,黑龙江省,230881
101050407,佳木斯市,富锦,黑龙江省,230882
101050403,佳木斯市,抚远,黑龙江省,230883
101051002,七台河市,七台河,黑龙江省,230900
101051001,七台河市,新兴区,黑龙江省,230902
101051004,七台河市,桃山区,黑龙江省,230903
101051005,七台河市,茄子河,黑龙江省,230904
101051003,七台河市,勃利,黑龙江省,230921
101050301,牡丹江市,牡丹江,黑龙江省,231000
101050308,牡丹江市,东安区,黑龙江省,231002
101050309,牡丹江市,阳明,黑龙江省,231003
101050310,牡丹江市,爱民,黑龙江省,231004
101050311,牡丹江市,西安区,黑龙江省,231005
101050304,牡丹江市,林口,黑龙江省,231025
101050305,牡丹江市,绥芬河,黑龙江省,231081
101050302,牡丹江市,海林,黑龙江省,231083
101050306,牡丹江市,宁安,黑龙江省,231084
101050303,牡丹江市,穆棱,黑龙江省,231085
101050307,牡丹江市,东宁,黑龙江省,231086
101050601,黑河市,黑河,黑龙江省,231100
101050607,黑河市,爱辉,黑龙江省,231102
101050602,黑河市,嫩江,黑龙江省,231121
101050604,黑河市,逊克,黑龙江省,231123
101050603,黑河市,孙吴,黑龙江省,231124
101050606,黑河市,北安,黑龙江省,231181
101050605,黑河市,五大连池,黑龙江省,231182
101050501,绥化市,绥化,黑龙江省,231200
101050511,绥化市,北林,黑龙江省,231202
101050506,绥化市,望奎,黑龙江省,231221
101050507,绥化市,兰西,黑龙江省,231222
101050508,绥化市,青冈,黑龙江省,231223
101050509,绥化市,庆安,黑龙江省,231224
101050505,绥化市,明水,黑龙江省,231225
101050510,绥化市,绥棱,黑龙江省,231226
101050503,绥化市,安达,黑龙江省,231281
101050502,绥化市,肇东,黑龙江省,231282
101050504,绥化市,海伦,黑龙江省,231283
101050701,大兴安岭地区,大兴安岭,黑龙江省,232700
101050703,大兴安岭地区,漠河,黑龙江省,232701
101050704,大兴安岭地区,呼玛,黑龙江省,232721
101050702,大兴安岭地区,塔河,黑龙江省,232722
101050730,大兴安岭地区,大兴安岭地区直辖,黑龙江省,232723
101020100,上海市,上海,上海市,310100
101020400,上海市,黄浦,上海市,310101
101021200,上海市,徐汇,上海市,310104
101021300,上海市,长宁区,上海市,310105
101021400,上海市,静安,上海市,310106
101021500,上海市,普陀区,上海市,310107
101021600,上海市,虹口,上海市,310109
101021700,上海市,杨浦,上海市,310110
101020200,上海市,闵行,上海市,310112
101020300,上海市,宝山,上海市,310113
101020500,上海市,嘉定,上海市,310114
101020600,上海市,浦东新区,上海市,310115
101020700,上海市,金山,上海市,310116
101020900,上海市,松江,上海市,310117
101020800,上海市,青浦,上海市,310118
101021000,上海市,奉贤,上海市,310120
101021100,上海市,崇明,上海市,310151
101190101,南京市,南京,江苏省,320100
101190108,南京市,玄武,江苏省,320102
101190109,南京市,秦淮,江苏省,320104
101190110,南京市,建邺,江苏省,320105
101190111,南京市,鼓楼,江苏省,320106
101190107,南京市,浦口,江苏省,320111
101190112,南京市,栖霞区,江苏省,320113
101190113,南京市,雨花台,江苏省,320114
101190104,南京市,江宁,江苏省,320115
101190105,南京市,六合,江苏省,320116
101190102,南京市,溧水,江苏省,320117
101190103,南京市,高淳,江苏省,320118
101190201,无锡市,无锡,江苏省,320200
101190204,无锡市,锡山,江苏省,320205
101190205,无锡市,惠山,江苏省,320206
101190206,无锡市,滨湖,江苏省,320211
101190207,无锡市,梁溪,江苏省,320213
101190208,无锡市,新吴,江苏省,320214
101190202,无锡市,江阴,江苏省,320281
101190203,无锡市,宜兴,江苏省,320282
101190801,徐州市,徐州,江苏省,320300
101190808,徐州市,鼓楼区,江苏省,320302
101190809,徐州市,云龙区,江苏省,320303
101190810,徐州市,贾汪,江苏省,320305
101190811,徐州市,泉山,江苏省,320311
101190802,徐州市,铜山,江苏省,320312
101190803,徐州市,丰县,江苏省,320321
101190804,徐州市,沛县,江苏省,320322
101190806,徐州市,睢宁,江苏省,320324
101190807,徐州市,新沂,江苏省,320381
101190805,徐州市,邳州,江苏省,320382
101191101,常州市,常州,江苏省,320400
101191105,常州市,天宁,江苏省,320402
101191106,常州市,钟楼,江苏省,320404
101191107,常州市,新北区,江苏省,320411
101191104,常州市,武进,江苏省,320412
101191103,常州市,金坛,江苏省,320413
101191102,常州市,溧阳,江苏省,320481
101190401,苏州市,苏州,江苏省,320500
101190406,苏州市,虎丘,江苏省,320505
101190405,苏州市,吴中,江苏省,320506
101190409,苏州市,相城,江苏省,320507
101190410,苏州市,姑苏,江苏省,320508
101190407,苏州市,吴江,江苏省,320509
101190430,苏州市,苏州工业园区,江苏省,320571
101190402,苏州市,常熟,江苏省,320581
101190403,苏州市,张家港,江苏省,320582
101190404,苏州市,昆山,江苏省,320583
101190408,苏州市,太仓,江苏省,320585
101190501,南通市,南通,江苏省,320600
101190505,南通市,崇川,江苏省,320602
101190506,南通市,港闸,江苏省,320611
101190509,南通市,通州区,江苏省,320612
101190504,南通市,如东,江苏省,320623
101190507,南通市,启东,江苏省,320681
101190503,南通市,如皋,江苏省,320682
101190508,南通市,海门,江苏省,320684
101190502,南通市,海安,江苏省,320685
101191001,连云港市,连云港,江苏省,320700
101191007,连云港市,连云,江苏省,320703
101191006,连云港市,海州,江苏省,320706
101191003,连云港市,赣榆,江苏省,320707
101191002,连云港市,东海,江苏省,320722
101191004,连云港市,灌云,江苏省,320723
101191005,连云港市,灌南,江苏省,320724
101190901,淮安市,淮安,江苏省,320800
101190908,淮安市,淮安区,江苏省,320803
101190906,淮安市,淮阴,江苏省,320804
101190907,淮安市,清江浦,江苏省,320812
101190904,淮安市,洪泽,江苏省,320813
101190905,淮安市,涟水,江苏省,320826
101190903,淮安市,盱眙,江苏省,320830
101190902,淮安市,金湖,江苏省,320831
101190701,盐城市,盐城,江苏省,320900
101190710,盐城市,亭湖,江苏省,320902
101190709,盐城市,盐都,江苏省,320903
101190708,盐城市,大丰,江苏省,320904
101190702,盐城市,响水,江苏省,320921
101190703,盐城市,滨海,江苏省,320922
101190704,盐城市,阜宁,江苏省,320923
101190705,盐城市,射阳,江苏省,320924
101190706,盐城市,建湖,江苏省,320925
101190707,盐城市,东台,江苏省,320981
101190601,扬州市,扬州,江苏省,321000
101190607,扬州市,广陵,江苏省,321002
101190606,扬州市,邗江,江苏省,321003
101190605,扬州市,江都,江苏省,321012
101190602,扬州市,宝应,江苏省,321023
101190603,扬州市,仪征,江苏省,321081
101190604,扬州市,高邮,江苏省,321084
101190301,镇江市,镇江,江苏省,321100
101190306,镇江市,京口,江苏省,321102
101190307,镇江市,润州,江苏省,321111
101190305,镇江市,丹徒,江苏省,321112
101190302,镇江市,丹阳,江苏省,321181
101190303,镇江市,扬中,江苏省,321182
101190304,镇江市,句容,江苏省,321183
101191201,泰州市,泰州,江苏省,321200
101191206,泰州市,海陵,江苏省,321202
101191207,泰州市,高港,江苏省,321203
101191204,泰州市,姜堰,江苏省,321204
101191202,泰州市,兴化,江苏省,321281
101191205,泰州市,靖江,江苏省,321282
101191203,泰州市,泰兴,江苏省,321283
101191301,宿迁市,宿迁,江苏省,321300
101191306,宿迁市,宿城,江苏省,321302
101191305,宿迁市,宿豫,江苏省,321311
101191302,宿迁市,沭阳,江苏省,321322
101191303,宿迁市,泗阳,江苏省,321323
101191304,宿迁市,泗洪,江苏省,321324
101210101,杭州市,杭州,浙江省,330100
101210109,杭州市,上城区,浙江省,330102
101210110,杭州市,下城区,浙江省,330103
101210111,杭州市,江干,浙江省,330104
101210112,杭州市,拱墅,浙江省,330105
101210113,杭州市,西湖,浙江省,330106
101210114,杭州市,滨江,浙江省,330108
101210102,杭州市,萧山,浙江省,330109
101210106,杭州市,余杭,浙江省,330110
101210108,杭州市,富阳,浙江省,330111
101210107,杭州市,临安,浙江省,330112
101210103,杭州市,桐庐,浙江省,330122
101210104,杭州市,淳安,浙江省,330127
101210105,杭州市,建德,浙江省,330182
101210401,宁波市,宁波,浙江省,330200
101210402,宁波市,海曙,浙江省,330203
101210409,宁波市,江北区,浙江省,330205
101210410,宁波市,北仑,浙江省,330206
101210412,宁波市,镇海,浙江省,330211
101210411,宁波市,鄞州,浙江省,330212
101210405,宁波市,奉化,浙江省,330213
101210406,宁波市,象山,浙江省,330225
101210408,宁波市,宁海,浙江省,330226
101210404,宁波市,余姚,浙江省,330281
101210403,宁波市,慈溪,浙江省,330282
101210701,温州市,温州,浙江省,330300
101210710,温州市,鹿城,浙江省,330302
101210711,温州市,龙湾,浙江省,330303
101210712,温州市,瓯海,浙江省,330304
101210706,温州市,洞头,浙江省,330305
101210708,温州市,永嘉,浙江省,330324
101210704,温州市,平阳,浙江省,330326
101210709,温州市,苍南,浙江省,330327
101210703,温州市,文成,浙江省,330328
101210702,温州市,泰顺,浙江省,330329
101210705,温州市,瑞安,浙江省,330381
101210707,温州市,乐清,浙江省,330382
101210301,嘉兴市,嘉兴,浙江省,330400
101210307,嘉兴市,南湖,浙江省,330402
101210308,嘉兴市,秀洲,浙江省,330411
101210302,嘉兴市,嘉善,浙江省,330421
101210306,嘉兴市,海盐,浙江省,330424
101210303,嘉兴市,海宁,浙江省,330481
101210305,嘉兴市,平湖,浙江省,330482
101210304,嘉兴市,桐乡,浙江省,330483
101210201,湖州市,湖州,浙江省,330500
101210205,湖州市,吴兴,浙江省,330502
101210206,湖州市,南浔,浙江省,330503
101210204,湖州市,德清,浙江省,330521
101210202,湖州市,长兴,浙江省,330522
101210203,湖州市,安吉,浙江省,330523
101210507,绍兴市,绍兴,浙江省,330600
101210501,绍兴市,越城,浙江省,330602
101210506,绍兴市,柯桥,浙江省,330603
101210503,绍兴市,上虞,浙江省,330604
101210504,绍兴市,新昌,浙江省,330624
101210502,绍兴市,诸暨,浙江省,330681
101210505,绍兴市,嵊州,浙江省,330683
101210901,金华市,金华,浙江省,330700
101210909,金华市,婺城,浙江省,330702
101210910,金华市,金东,浙江省,330703
101210906,金华市,武义,浙江省,330723
101210902,金华市,浦江,浙江省,330726
101210908,金华市,磐安,浙江省,330727
101210903,金华市,兰溪,浙江省,330781
101210904,金华市,义乌,浙江省,330782
101210905,金华市,东阳,浙江省,330783
101210907,金华市,永康,浙江省,330784
101211001,衢州市,衢州,浙江省,330800
101211007,衢州市,柯城,浙江省,330802
101211006,衢州市,衢江,浙江省,330803
101211002,衢州市,常山,浙江省,330822
101211003,衢州市,开化,浙江省,330824
101211004,衢州市,龙游,浙江省,330825
101211005,衢州市,江山,浙江省,330881
101211101,舟山市,舟山,浙江省,330900
101211106,舟山市,定海,浙江省,330902
101211105,舟山市,普陀,浙江省,330903
101211104,舟山市,岱山,浙江省,330921
101211102,舟山市,嵊泗,浙江省,330922
101210601,台州市,台州,浙江省,331000
101210611,台州市,椒江,浙江省,331002
101210612,台州市,黄岩,浙江省,331003
101210613,台州市,路桥,浙江省,331004
101210604,台州市,三门,浙江省,331022
101210605,台州市,天台,浙江省,331023
101210606,台州市,仙居,浙江省,331024
101210607,台州市,温岭,浙江省,331081
101210610,台州市,临海,浙江省,331082
101210603,台州市,玉环,浙江省,331083
101210801,丽水市,丽水,浙江省,331100
101210810,丽水市,莲都,浙江省,331102
101210805,丽水市,青田,浙江省,331121
101210804,丽水市,缙云,浙江省,331122
101210802,丽水市,遂昌,浙江省,331123
101210808,丽水市,松阳,浙江省,331124
101210806,丽水市,云和,浙江省,331125
101210807,丽水市,庆元,浙江省,331126
101210809,丽水市,景宁,浙江省,331127
101210803,丽水市,龙泉,浙江省,331181
101220101,合肥市,合肥,安徽省,340100
101220107,合肥市,瑶海,安徽省,340102
101220108,合肥市,庐阳,安徽省,340103
101220109,合肥市,蜀山,安徽省,340104
101220110,合肥市,包河,安徽省,340111
101220102,合肥市,长丰,安徽省,340121
101220103,合肥市,肥东,安徽省,340122
101220104,合肥市,肥西,安徽省,340123
101220106,合肥市,庐江,安徽省,340124
101220105,合肥市,巢湖,安徽省,340181
101220301,芜湖市,芜湖,安徽省,340200
101220306,芜湖市,镜湖,安徽省,340202
101220307,芜湖市,弋江,安徽省,340203
101220308,芜湖市,鸠江,安徽省,340207
101220309,芜湖市,三山,安徽省,340208
101220303,芜湖市,芜湖县,安徽省,340221
101220302,芜湖市,繁昌,安徽省,340222
101220304,芜湖市,南陵,安徽省,340223
101220305,芜湖市,无为,安徽省,340225
101220201,蚌埠市,蚌埠,安徽省,340300
101220205,蚌埠市,龙子湖,安徽省,340302
101220206,蚌埠市,蚌山,安徽省,340303
101220207,蚌埠市,禹会,安徽省,340304
101220208,蚌埠市,淮上,安徽省,340311
101220202,蚌埠市,怀远,安徽省,340321
101220204,蚌埠市,五河,安徽省,340322
101220203,蚌埠市,固镇,安徽省,340323
101220401,淮南市,淮南,安徽省,340400
101220404,淮南市,大通区,安徽省,340402
101220405,淮南市,田家庵,安徽省,340403
101220406,淮南市,谢家集,安徽省,340404
101220407,淮南市,八公山,安徽省,340405
101220403,淮南市,潘集,安徽省,340406
101220402,淮南市,凤台,安徽省,340421
101220408,淮南市,寿县,安徽省,340422
101220501,马鞍山市,马鞍山,安徽省,340500
101220505,马鞍山市,花山,安徽省,340503
101220506,马鞍山市,雨山,安徽省,340504
101220507,马鞍山市,博望,安徽省,340506
101220502,马鞍山市,当涂,安徽省,340521
101220503,马鞍山市,含山,安徽省,340522
101220504,马鞍山市,和县,安徽省,340523
101221201,淮北市,淮北,安徽省,340600
101221203,淮北市,杜集,安徽省,340602
101221204,淮北市,相山,安徽省,340603
101221205,淮北市,烈山,安徽省,340604
101221202,淮北市,濉溪,安徽省,340621
101221301,铜陵市,铜陵,安徽省,340700
101221302,铜陵市,铜官,安徽省,340705
101221303,铜陵市,义安,安徽省,340706
101221304,铜陵市,郊区,安徽省,340711
101221305,铜陵市,枞阳,安徽省,340722
101220601,安庆市,安庆,安徽省,340800
101220610,安庆市,迎江,安徽省,340802
101220611,安庆市,大观,安徽省,340803
101220612,安庆市,宜秀,安徽省,340811
101220605,安庆市,怀宁,安徽省,340822
101220603,安庆市,太湖,安徽省,340825
101220606,安庆市,宿松,安徽省,340826
101220607,安庆市,望江,安徽省,340827
101220608,安庆市,岳西,安徽省,340828
101220609,安庆市,桐城,安徽省,340881
101220604,安庆市,潜山,安徽省,340882
101221001,黄山市,黄山,安徽省,341000
101221003,黄山市,屯溪,安徽省,341002
101221002,黄山市,黄山区,安徽省,341003
101221009,黄山市,徽州,安徽省,341004
101221006,黄山市,歙县,安徽省,341021
101221007,黄山市,休宁,安徽省,341022
101221005,黄山市,黟县,安徽省,341023
101221004,黄山市,祁门,安徽省,341024
101221101,滁州市,滁州,安徽省,341100
101221108,滁州市,琅琊,安徽省,341102
101221109,滁州市,南谯,安徽省,341103
101221106,滁州市,来安,安徽省,341122
101221105,滁州市,全椒,安徽省,341124
101221104,滁州市,定远,安徽省,341125
101221102,滁州市,凤阳,安徽省,341126
101221107,滁州市,天长,安徽省,341181
101221103,滁州市,明光,安徽省,341182
101220801,阜阳市,阜阳,安徽省,341200
101220807,阜阳市,颍州,安徽省,341202
101220808,阜阳市,颍东,安徽省,341203
101220809,阜阳市,颍泉,安徽省,341204
101220804,阜阳市,临泉,安徽省,341221
101220806,阜阳市,太和,安徽省,341222
101220802,阜阳市,阜南,安徽省,341225
101220803,阜阳市,颍上,安徽省,341226
101220805,阜阳市,界首,安徽省,341282
101220701,宿州市,宿州,安徽省,341300
101220706,宿州市,埇桥,安徽省,341302
101220702,宿州市,砀山,安徽省,341321
101220705,宿州市,萧县,安徽省,341322
101220703,宿州市,灵璧,安徽省,341323
101220704,宿州市,泗县,安徽省,341324
101221501,六安市,六安,安徽省,341500
101221504,六安市,金安,安徽省,341502
101221508,六安市,裕安,安徽省,341503
101221509,六安市,叶集,安徽省,341504
101221502,六安市,霍邱,安徽省,341522
101221507,六安市,舒城,安徽省,341523
101221505,六安市,金寨,安徽省,341524
101221506,六安市,霍山,安徽省,341525
101220901,亳州市,亳州,安徽省,341600
101220905,亳州市,谯城,安徽省,341602
101220902,亳州市,涡阳,安徽省,341621
101220904,亳州市,蒙城,安徽省,341622
101220903,亳州市,利辛,安徽省,341623
101221701,池州市,池州,安徽省,341700
101221706,池州市,贵池,安徽省,341702
101221702,池州市,东至,安徽省,341721
101221705,池州市,石台,安徽省,341722
101221703,池州市,青阳,安徽省,341723
101221401,宣城市,宣城,安徽省,341800
101221408,宣城市,宣州,安徽省,341802
101221407,宣城市,郎溪,安徽省,341821
101221406,宣城市,广德,安徽省,341822
101221402,宣城市,泾县,安徽省,341823
101221405,宣城市,绩溪,安徽省,341824
101221403,宣城市,旌德,安徽省,341825
101221404,宣城市,宁国,安徽省,341881
101230101,福州市,福州,福建省,350100
101230106,福州市,鼓楼区,福建省,350102
101230109,福州市,台江区,福建省,350103
101230112,福州市,仓山,福建省,350104
101230113,福州市,马尾,福建省,350105
101230114,福州市,晋安,福建省,350111
101230110,福州市,长乐,福建省,350112
101230103,福州市,闽侯,福建省,350121
101230105,福州市,连江,福建省,350122
101230104,福州市,罗源,福建省,350123
101230102,福州市,闽清,福建省,350124
101230107,福州市,永泰,福建省,350125
101230108,福州市,平潭,福建省,350128
101230111,福州市,福清,福建省,350181
101230201,厦门市,厦门,福建省,350200
101230203,厦门市,思明,福建省,350203
101230204,厦门市,海沧,福建省,350205
101230205,厦门市,湖里,福建省,350206
101230206,厦门市,集美,福建省,350211
101230202,厦门市,同安,福建省,350212
101230207,厦门市,翔安,福建省,350213
101230401,莆田市,莆田,福建省,350300
101230407,莆田市,城厢,福建省,350302
101230404,莆田市,涵江,福建省,350303
101230406,莆田市,荔城,福建省,350304
101230405,莆田市,秀屿,福建省,350305
101230402,莆田市,仙游,福建省,350322
101230801,三明市,三明,福建省,350400
101230812,三明市,梅列,福建省,350402
101230813,三明市,三元,福建省,350403
101230807,三明市,明溪,福建省,350421
101230803,三明市,清流,福建省,350423
101230802,三明市,宁化,福建省,350424
101230811,三明市,大田,福建省,350425
101230809,三明市,尤溪,福建省,350426
101230808,三明市,沙县,福建省,350427
101230805,三明市,将乐,福建省,350428
101230804,三明市,泰宁,福建省,350429
101230806,三明市,建宁,福建省,350430
101230810,三明市,永安,福建省,350481
101230501,泉州市,泉州,福建省,350500
101230511,泉州市,鲤城,福建省,350502
101230512,泉州市,丰泽,福建省,350503
101230513,泉州市,洛江,福建省,350504
101230514,泉州市,泉港,福建省,350505
101230508,泉州市,惠安,福建省,350521
101230502,泉州市,安溪,福建省,350524
101230504,泉州市,永春,福建省,350525
101230505,泉州市,德化,福建省,350526
101230503,泉州市,金门,福建省,350527
101230510,泉州市,石狮,福建省,350581
101230509,泉州市,晋江,福建省,350582
101230506,泉州市,南安,福建省,350583
101230601,漳州市,漳州,福建省,350600
101230611,漳州市,芗城,福建省,350602
101230612,漳州市,龙文,福建省,350603
101230609,漳州市,云霄,福建省,350622
101230606,漳州市,漳浦,福建省,350623
101230607,漳州市,诏安,福建省,350624
101230602,漳州市,长泰,福建省,350625
101230608,漳州市,东山,福建省,350626
101230603,漳州市,南靖,福建省,350627
101230604,漳州市,平和,福建省,350628
101230610,漳州市,华安,福建省,350629
101230605,漳州市,龙海,福建省,350681
101230901,南平市,南平,福建省,350700
101230911,南平市,延平,福建省,350702
101230907,南平市,建阳,福建省,350703
101230902,南平市,顺昌,福建省,350721
101230906,南平市,浦城,福建省,350722
101230903,南平市,光泽,福建省,350723
101230908,南平市,松溪,福建省,350724
101230909,南平市,政和,福建省,350725
101230904,南平市,邵武,福建省,350781
101230905,南平市,武夷山,福建省,350782
101230910,南平市,建瓯,福建省,350783
101230701,龙岩市,龙岩,福建省,350800
101230708,龙岩市,新罗,福建省,350802
101230706,龙岩市,永定区,福建省,350803
101230702,龙岩市,长汀,福建省,350821
101230705,龙岩市,上杭,福建省,350823
101230704,龙岩市,武平,福建省,350824
101230703,龙岩市,连城,福建省,350825
101230707,龙岩市,漳平,福建省,350881
101230301,宁德市,宁德,福建省,350900
101230310,宁德市,蕉城,福建省,350902
101230303,宁德市,霞浦,福建省,350921
101230302,宁德市,古田,福建省,350922
101230309,宁德市,屏南,福建省,350923
101230304,宁德市,寿宁,福建省,350924
101230305,宁德市,周宁,福建省,350925
101230307,宁德市,柘荣,福建省,350926
101230306,宁德市,福安,福建省,350981
101230308,宁德市,福鼎,福建省,350982
101240101,南昌市,南昌,江西省,360100
101240106,南昌市,东湖区,江西省,360102
101240107,南昌市,西湖区,江西省,360103
101240108,南昌市,青云谱,江西省,360104
101240109,南昌市,湾里,江西省,360105
101240110,南昌市,青山湖,江西省,360111
101240102,南昌市,新建区,江西省,360112
101240103,南昌市,南昌县,江西省,360121
101240104,南昌市,安义,江西省,360123
101240105,南昌市,进贤,江西省,360124
101240801,景德镇市,景德镇,江西省,360200
101240804,景德镇市,昌江区,江西省,360202
101240805,景德镇市,珠山,江西省,360203
101240803,景德镇市,浮梁,江西省,360222
101240802,景德镇市,乐平,江西省,360281
101240901,萍乡市,萍乡,江西省,360300
101240904,萍乡市,安源,江西省,360302
101240906,萍乡市,湘东,江西省,360313
101240902,萍乡市,莲花,江西省,360321
101240903,萍乡市,上栗,江西省,360322
101240905,萍乡市,芦溪,江西省,360323
101240201,九江市,九江,江西省,360400
101240203,九江市,濂溪,江西省,360402
101240211,九江市,浔阳,江西省,360403
101240214,九江市,柴桑,江西省,360404
101240204,九江市,武宁,江西省,360423
101240212,九江市,修水,江西省,360424
101240206,九江市,永修,江西省,360425
101240205,九江市,德安,江西省,360426
101240210,九江市,都昌,江西省,360428
101240207,九江市,湖口,江西省,360429
101240208,九江市,彭泽,江西省,360430
101240202,九江市,瑞昌,江西省,360481
101240213,九江市,共青城,江西省,360482
101240215,九江市,庐山,江西省,360483
101241001,新余市,新余,江西省,360500
101241003,新余市,渝水,江西省,360502
101241002,新余市,分宜,江西省,360521
101241101,鹰潭市,鹰潭,江西省,360600
101241104,鹰潭市,月湖,江西省,360602
101241102,鹰潭市,余江,江西省,360603
101241103,鹰潭市,贵溪,江西省,360681
101240701,赣州市,赣州,江西省,360700
101240719,赣州市,章贡,江西省,360702
101240704,赣州市,南康,江西省,360703
101240718,赣州市,赣县,江西省,360704
101240706,赣州市,信丰,江西省,360722
101240705,赣州市,大余,江西省,360723
101240703,赣州市,上犹,江西省,360724
101240702,赣州市,崇义,江西省,360725
101240712,赣州市,安远,江西省,360726
101240714,赣州市,龙南,江西省,360727
101240715,赣州市,定南,江西省,360728
101240713,赣州市,全南,江西省,360729
101240707,赣州市,宁都,江西省,360730
101240710,赣州市,于都,江西省,360731
101240717,赣州市,兴国,江西省,360732
101240711,赣州市,会昌,江西省,360733
101240716,赣州市,寻乌,江西省,360734
101240708,赣州市,石城,江西省,360735
101240709,赣州市,瑞金,江西省,360781
101240601,吉安市,吉安,江西省,360800
101240614,吉安市,吉州,江西省,360802
101240615,吉安市,青原,江西省,360803
101240602,吉安市,吉安县,江西省,360821
101240603,吉安市,吉水,江西省,360822
101240605,吉安市,峡江,江西省,360823
101240604,吉安市,新干,江西省,360824
101240606,吉安市,永丰,江西省,360825
101240611,吉安市,泰和,江西省,360826
101240610,吉安市,遂川,江西省,360827
101240609,吉安市,万安,江西省,360828
101240612,吉安市,安福,江西省,360829
101240607,吉安市,永新,江西省,360830
101240608,吉安市,井冈山,江西省,360881
101240501,宜春市,宜春,江西省,360900
101240511,宜春市,袁州,江西省,360902
101240507,宜春市,奉新,江西省,360921
101240504,宜春市,万载,江西省,360922
101240505,宜春市,上高,江西省,360923
101240503,宜春市,宜丰,江西省,360924
101240506,宜春市,靖安,江西省,360925
101240502,宜春市,铜鼓,江西省,360926
101240510,宜春市,丰城,江西省,360981
101240509,宜春市,樟树,江西省,360982
101240508,宜春市,高安,江西省,360983
101240401,抚州市,抚州,江西省,361000
101240412,抚州市,临川,江西省,361002
101240411,抚州市,东乡区,江西省,361003
101240408,抚州市,南城,江西省,361021
101240410,抚州市,黎川,江西省,361022
101240409,抚州市,南丰,江西省,361023
101240404,抚州市,崇仁,江西省,361024
101240403,抚州市,乐安,江西省,361025
101240407,抚州市,宜黄,江西省,361026
101240405,抚州市,金溪,江西省,361027
101240406,抚州市,资溪,江西省,361028
101240402,抚州市,广昌,江西省,361030
101240301,上饶市,上饶,江西省,361100
101240304,上饶市,信州,江西省,361102
101240313,上饶市,广丰,江西省,361103
101240308,上饶市,上饶县,江西省,361121
101240312,上饶市,玉山,江西省,361123
101240311,上饶市,铅山,江西省,361124
101240310,上饶市,横峰,江西省,361125
101240309,上饶市,弋阳,江西省,361126
101240305,上饶市,余干,江西省,361127
101240302,上饶市,鄱阳,江西省,361128
101240306,上饶市,万年,江西省,361129
101240303,上饶市,婺源,江西省,361130
101240307,上饶市,德兴,江西省,361181
101120101,济南市,济南,山东省,370100
101120107,济南市,历下,山东省,370102
101120108,济南市,市中,山东省,370103
101120109,济南市,槐荫,山东省,370104
101120110,济南市,天桥,山东省,370105
101120111,济南市,历城,山东省,370112
101120102,济南市,长清,山东省,370113
101120104,济南市,章丘,山东省,370114
101120106,济南市,济阳,山东省,370115
101120130,济南市,莱芜,山东省,370116
101120131,济南市,钢城,山东省,370117
101120105,济南市,平阴,山东省,370124
101120103,济南市,商河,山东省,370126
101120201,青岛市,青岛,山东省,370200
101120203,青岛市,市南区,山东省,370202
101120209,青岛市,市北区,山东省,370203
101120206,青岛市,黄岛,山东省,370211
101120202,青岛市,崂山,山东省,370212
101120210,青岛市,李沧,山东省,370213
101120211,青岛市,城阳,山东省,370214
101120204,青岛市,即墨,山东省,370215
101120205,青岛市,胶州,山东省,370281
101120208,青岛市,平度,山东省,370283
101120207,青岛市,莱西,山东省,370285
101120301,淄博市,淄博,山东省,370300
101120302,淄博市,淄川,山东省,370302
101120309,淄博市,张店,山东省,370303
101120303,淄博市,博山,山东省,370304
101120308,淄博市,临淄,山东省,370305
101120305,淄博市,周村,山东省,370306
101120307,淄博市,桓台,山东省,370321
101120304,淄博市,高青,山东省,370322
101120306,淄博市,沂源,山东省,370323
101121401,枣庄市,枣庄,山东省,370400
101121406,枣庄市,市中区,山东省,370402
101121402,枣庄市,薛城,山东省,370403
101121403,枣庄市,峄城,山东省,370404
101121404,枣庄市,台儿庄,山东省,370405
101121407,枣庄市,山亭,山东省,370406
101121405,枣庄市,滕州,山东省,370481
101121201,东营市,东营,山东省,370500
101121230,东营市,东营区,山东省,370502
101121202,东营市,河口区,山东省,370503
101121203,东营市,垦利,山东省,370505
101121204,东营市,利津,山东省,370522
101121205,东营市,广饶,山东省,370523
101120501,烟台市,烟台,山东省,370600
101120512,烟台市,芝罘,山东省,370602
101120508,烟台市,福山,山东省,370611
101120509,烟台市,牟平,山东省,370612
101120513,烟台市,莱山,山东省,370613
101120503,烟台市,长岛,山东省,370634
101120505,烟台市,龙口,山东省,370681
101120510,烟台市,莱阳,山东省,370682
101120502,烟台市,莱州,山东省,370683
101120504,烟台市,蓬莱,山东省,370684
101120506,烟台市,招远,山东省,370685
101120507,烟台市,栖霞,山东省,370686
101120511,烟台市,海阳,山东省,370687
101120601,潍坊市,潍坊,山东省,370700
101120610,潍坊市,潍城,山东省,370702
101120611,潍坊市,寒亭,山东省,370703
101120612,潍坊市,坊子,山东省,370704
101120613,潍坊市,奎文,山东省,370705
101120604,潍坊市,临朐,山东省,370724
101120605,潍坊市,昌乐,山东省,370725
101120602,潍坊市,青州,山东省,370781
101120609,潍坊市,诸城,山东省,370782
101120603,潍坊市,寿光,山东省,370783
101120607,潍坊市,安丘,山东省,370784
101120608,潍坊市,高密,山东省,370785
101120606,潍坊市,昌邑,山东省,370786
101120701,济宁市,济宁,山东省,370800
101120712,济宁市,任城,山东省,370811
101120705,济宁市,兖州,山东省,370812
101120703,济宁市,微山,山东省,370826
101120704,济宁市,鱼台,山东省,370827
101120706,济宁市,金乡,山东省,370828
101120702,济宁市,嘉祥,山东省,370829
101120707,济宁市,汶上,山东省,370830
101120708,济宁市,泗水,山东省,370831
101120709,济宁市,梁山,山东省,370832
101120710,济宁市,曲阜,山东省,370881
101120711,济宁市,邹城,山东省,370883
101120801,泰安市,泰安,山东省,370900
101120803,泰安市,泰山,山东省,370902
101120807,泰安市,岱岳,山东省,370911
101120806,泰安市,宁阳,山东省,370921
101120805,泰安市,东平,山东省,370923
101120802,泰安市,新泰,山东省,370982
101120804,泰安市,肥城,山东省,370983
101121301,威海市,威海,山东省,371000
101121307,威海市,环翠,山东省,371002
101121302,威海市,文登,山东省,371003
101121303,威海市,荣成,山东省,371082
101121304,威海市,乳山,山东省,371083
101121501,日照市,日照,山东省,371100
101121504,日照市,东港区,山东省,371102
101121505,日照市,岚山,山东省,371103
101121502,日照市,五莲,山东省,371121
101121503,日照市,莒县,山东省,371122
101120901,临沂市,临沂,山东省,371300
101120911,临沂市,兰山,山东省,371302
101120912,临沂市,罗庄,山东省,371311
101120913,临沂市,河东区,山东省,371312
101120903,临沂市,沂南,山东省,371321
101120906,临沂市,郯城,山东省,371322
101120910,临沂市,沂水,山东省,371323
101120904,临沂市,兰陵,山东省,371324
101120909,临沂市,费县,山东省,371325
101120908,临沂市,平邑,山东省,371326
101120902,临沂市,莒南,山东省,371327
101120907,临沂市,蒙阴,山东省,371328
101120905,临沂市,临沭,山东省,371329
101120401,德州市,德州,山东省,371400
101120412,德州市,德城,山东省,371402
101120413,德州市,陵城,山东省,371403
101120409,德州市,宁津,山东省,371422
101120407,德州市,庆云,山东省,371423
101120403,德州市,临邑,山东省,371424
101120405,德州市,齐河,山东省,371425
101120408,德州市,平原,山东省,371426
101120410,德州市,夏津,山东省,371427
101120402,德州市,武城,山东省,371428
101120406,德州市,乐陵,山东省,371481
101120411,德州市,禹城,山东省,371482
101121701,聊城市,聊城,山东省,371500
101121708,聊城市,东昌府,山东省,371502
101121703,聊城市,阳谷,山东省,371521
101121709,聊城市,莘县,山东省,371522
101121705,聊城市,茌平,山东省,371523
101121706,聊城市,东阿,山东省,371524
101121702,聊城市,冠县,山东省,371525
101121704,聊城市,高唐,山东省,371526
101121707,聊城市,临清,山东省,371581
101121101,滨州市,滨州,山东省,371600
101121108,滨州市,滨城,山东省,371602
101121106,滨州市,沾化,山东省,371603
101121105,滨州市,惠民,山东省,371621
101121104,滨州市,阳信,山东省,371622
101121103,滨州市,无棣,山东省,371623
101121102,滨州市,博兴,山东省,371625
101121107,滨州市,邹平,山东省,371681
101121001,菏泽市,菏泽,山东省,371700
101121010,菏泽市,牡丹,山东省,371702
101121005,菏泽市,定陶,山东省,371703
101121007,菏泽市,曹县,山东省,371721
101121009,菏泽市,单县,山东省,371722
101121008,菏泽市,成武,山东省,371723
101121006,菏泽市,巨野,山东省,371724
101121003,菏泽市,郓城,山东省,371725
101121002,菏泽市,鄄城,山东省,371726
101121004,菏泽市,东明,山东省,371728
101180101,郑州市,郑州,河南省,410100
101180109,郑州市,中原,河南省,410102
101180110,郑州市,二七区,河南省,410103
101180111,郑州市,管城,河南省,410104
101180112,郑州市,金水,河南省,410105
101180108,郑州市,上街,河南省,410106
101180113,郑州市,惠济,河南省,410108
101180107,郑州市,中牟,河南省,410122
101180102,郑州市,巩义,河南省,410181
101180103,郑州市,荥阳,河南省,410182
101180105,郑州市,新密,河南省,410183
101180106,郑州市,新郑,河南省,410184
101180104,郑州市,登封,河南省,410185
101180801,开封市,开封,河南省,410200
101180806,开封市,龙亭,河南省,410202
101180807,开封市,顺河,河南省,410203
101180808,开封市,鼓楼区,河南省,410204
101180809,开封市,禹王台,河南省,410205
101180810,开封市,祥符,河南省,410212
101180802,开封市,杞县,河南省,410221
101180804,开封市,通许,河南省,410222
101180803,开封市,尉氏,河南省,410223
101180805,开封市,兰考,河南省,410225
101180901,洛阳市,洛阳,河南省,410300
101180912,洛阳市,老城区,河南省,410302
101180913,洛阳市,西工,河南省,410303
101180914,洛阳市,瀍河,河南省,410304
101180915,洛阳市,涧西,河南省,410305
101180911,洛阳市,吉利,河南省,410306
101180916,洛阳市,洛龙,河南省,410311
101180903,洛阳市,孟津,河南省,410322
101180902,洛阳市,新安,河南省,410323
101180909,洛阳市,栾川,河南省,410324
101180907,洛阳市,嵩县,河南省,410325
101180910,洛阳市,汝阳,河南省,410326
101180904,洛阳市,宜阳,河南省,410327
101180905,洛阳市,洛宁,河南省,410328
101180906,洛阳市,伊川,河南省,410329
101180908,洛阳市,偃师,河南省,410381
101180501,平顶山市,平顶山,河南省,410400
101180509,平顶山市,新华区,河南省,410402
101180510,平顶山市,卫东,河南省,410403
101180508,平顶山市,石龙,河南省,410404
101180511,平顶山市,湛河,河南省,410411
101180503,平顶山市,宝丰,河南省,410421
101180505,平顶山市,叶县,河南省,410422
101180507,平顶山市,鲁山,河南省,410423
101180502,平顶山市,郏县,河南省,410425
101180506,平顶山市,舞钢,河南省,410481
101180504,平顶山市,汝州,河南省,410482
101180201,安阳市,安阳,河南省,410500
101180206,安阳市,文峰,河南省,410502
101180207,安阳市,北关,河南省,410503
101180208,安阳市,殷都,河南省,410505
101180209,安阳市,龙安,河南省,410506
101180230,安阳市,安阳县,河南省,410522
101180202,安阳市,汤阴,河南省,410523
101180203,安阳市,滑县,河南省,410526
101180204,安阳市,内黄,河南省,410527
101180205,安阳市,林州,河南省,410581
101181201,鹤壁市,鹤壁,河南省,410600
101181204,鹤壁市,鹤山区,河南省,410602
101181205,鹤壁市,山城,河南省,410603
101181206,鹤壁市,淇滨,河南省,410611
101181202,鹤壁市,浚县,河南省,410621
101181203,鹤壁市,淇县,河南省,410622
101180301,新乡市,新乡,河南省,410700
101180309,新乡市,红旗,河南省,410702
101180310,新乡市,卫滨,河南省,410703
101180311,新乡市,凤泉,河南省,410704
101180312,新乡市,牧野,河南省,410711
101180330,新乡市,新乡县,河南省,410721
101180302,新乡市,获嘉,河南省,410724
101180303,新乡市,原阳,河南省,410725
101180306,新乡市,延津,河南省,410726
101180307,新乡市,封丘,河南省,410727
101180308,新乡市,长垣,河南省,410728
101180305,新乡市,卫辉,河南省,410781
101180304,新乡市,辉县,河南省,410782
101181101,焦作市,焦作,河南省,410800
101181105,焦作市,解放,河南省,410802
101181109,焦作市,中站,河南省,410803
101181110,焦作市,马村,河南省,410804
101181111,焦作市,山阳区,河南省,410811
101181102,焦作市,修武,河南省,410821
101181106,焦作市,博爱,河南省,410822
101181103,焦作市,武陟,河南省,410823
101181107,焦作市,温县,河南省,410825
101181104,焦作市,沁阳,河南省,410882
101181108,焦作市,孟州,河南省,410883
101181301,濮阳市,濮阳,河南省,410900
101181306,濮阳市,华龙,河南省,410902
101181304,濮阳市,清丰,河南省,410922
101181303,濮阳市,南乐,河南省,410923
101181305,濮阳市,范县,河南省,410926
101181302,濮阳市,台前,河南省,410927
101181330,濮阳市,濮阳县,河南省,410928
101180401,许昌市,许昌,河南省,411000
101180406,许昌市,魏都,河南省,411002
101180407,许昌市,建安,河南省,411003
101180402,许昌市,鄢陵,河南省,411024
101180403,许昌市,襄城,河南省,411025
101180405,许昌市,禹州,河南省,411081
101180404,许昌市,长葛,河南省,411082
101181501,漯河市,漯河,河南省,411100
101181504,漯河市,源汇,河南省,411102
101181505,漯河市,郾城,河南省,411103
101181506,漯河市,召陵,河南省,411104
101181503,漯河市,舞阳,河南省,411121
101181502,漯河市,临颍,河南省,411122
101181701,三门峡市,三门峡,河南省,411200
101181707,三门峡市,湖滨区,河南省,411202
101181708,三门峡市,陕州,河南省,411203
101181703,三门峡市,渑池,河南省,411221
101181704,三门峡市,卢氏,河南省,411224
101181705,三门峡市,义马,河南省,411281
101181702,三门峡市,灵宝,河南省,411282
101180701,南阳市,南阳,河南省,411300
101180713,南阳市,宛城,河南省,411302
101180714,南阳市,卧龙,河南省,411303
101180702,南阳市,南召,河南省,411321
101180703,南阳市,方城,河南省,411322
101180705,南阳市,西峡,河南省,411323
101180707,南阳市,镇平,河南省,411324
101180706,南阳市,内乡,河南省,411325
101180708,南阳市,淅川,河南省,411326
101180704,南阳市,社旗,河南省,411327
101180710,南阳市,唐河,河南省,411328
101180709,南阳市,新野,河南省,411329
101180712,南阳市,桐柏,河南省,411330
101180711,南阳市,邓州,河南省,411381
101181001,商丘市,商丘,河南省,411400
101181002,商丘市,梁园,河南省,411402
101181010,商丘市,睢阳,河南省,411403
101181004,商丘市,民权,河南省,411421
101181003,商丘市,睢县,河南省,411422
101181007,商丘市,宁陵,河南省,411423
101181006,商丘市,柘城,河南省,411424
101181005,商丘市,虞城,河南省,411425
101181008,商丘市,夏邑,河南省,411426
101181009,商丘市,永城,河南省,411481
101180601,信阳市,信阳,河南省,411500
101180610,信阳市,浉河,河南省,411502
101180611,信阳市,平桥,河南省,411503
101180603,信阳市,罗山,河南省,411521
101180604,信阳市,光山,河南省,411522
101180605,信阳市,新县,河南省,411523
101180609,信阳市,商城,河南省,411524
101180608,信阳市,固始,河南省,411525
101180607,信阳市,潢川,河南省,411526
101180606,信阳市,淮滨,河南省,411527
101180602,信阳市,息县,河南省,411528
101181401,周口市,周口,河南省,411600
101181411,周口市,川汇,河南省,411602
101181402,周口市,扶沟,河南省,411621
101181405,周口市,西华,河南省,411622
101181406,周口市,商水,河南省,411623
101181410,周口市,沈丘,河南省,411624
101181408,周口市,郸城,河南省,411625
101181404,周口市,淮阳,河南省,411626
101181403,周口市,太康,河南省,411627
101181409,周口市,鹿邑,河南省,411628
101181407,周口市,项城,河南省,411681
101181601,驻马店市,驻马店,河南省,411700
101181611,驻马店市,驿城,河南省,411702
101181602,驻马店市,西平,河南省,411721
101181604,驻马店市,上蔡,河南省,411722
101181607,驻马店市,平舆,河南省,411723
101181610,驻马店市,正阳,河南省,411724
101181609,驻马店市,确山,河南省,411725
101181606,驻马店市,泌阳,河南省,411726
101181605,驻马店市,汝南,河南省,411727
101181603,驻马店市,遂平,河南省,411728
101181608,驻马店市,新蔡,河南省,411729
101181801,济源市,济源,河南省,419001
101200101,武汉市,武汉,湖北省,420100
101200107,武汉市,江岸,湖北省,420102
101200108,武汉市,江汉,湖北省,420103
101200109,武汉市,硚口,湖北省,420104
101200110,武汉市,汉阳,湖北省,420105
101200111,武汉市,武昌,湖北省,420106
101200112,武汉市,青山,湖北省,420107
101200113,武汉市,洪山,湖北省,420111
101200106,武汉市,东西湖,湖北省,420112
101200114,武汉市,汉南,湖北省,420113
101200102,武汉市,蔡甸,湖北省,420114
101200105,武汉市,江夏,湖北省,420115
101200103,武汉市,黄陂,湖北省,420116
101200104,武汉市,新洲,湖北省,420117
101200601,黄石市,黄石,湖北省,420200
101200607,黄石市,黄石港,湖北省,420202
101200606,黄石市,西塞山,湖北省,420203
101200605,黄石市,下陆,湖北省,420204
101200604,黄石市,铁山,湖北省,420205
101200603,黄石市,阳新,湖北省,420222
101200602,黄石市,大冶,湖北省,420281
101201101,十堰市,十堰,湖北省,420300
101201108,十堰市,茅箭,湖北省,420302
101201109,十堰市,张湾,湖北省,420303
101201104,十堰市,郧阳,湖北省,420304
101201103,十堰市,郧西,湖北省,420322
101201105,十堰市,竹山,湖北省,420323
101201102,十堰市,竹溪,湖北省,420324
101201106,十堰市,房县,湖北省,420325
101201107,十堰市,丹江口,湖北省,420381
101200901,宜昌市,宜昌,湖北省,420500
101200905,宜昌市,西陵,湖北省,420502
101200913,宜昌市,伍家岗,湖北省,420503
101200914,宜昌市,点军,湖北省,420504
101200915,宜昌市,猇亭,湖北省,420505
101200912,宜昌市,夷陵,湖北省,420506
101200902,宜昌市,远安,湖北省,420525
101200904,宜昌市,兴山,湖北省,420526
101200903,宜昌市,秭归,湖北省,420527
101200908,宜昌市,长阳,湖北省,420528
101200906,宜昌市,五峰,湖北省,420529
101200909,宜昌市,宜都,湖北省,420581
101200907,宜昌市,当阳,湖北省,420582
101200910,宜昌市,枝江,湖北省,420583
101200201,襄阳市,襄阳,湖北省,420600
101200209,襄阳市,襄城区,湖北省,420602
101200210,襄阳市,樊城,湖北省,420606
101200202,襄阳市,襄州,湖北省,420607
101200204,襄阳市,南漳,湖北省,420624
101200207,襄阳市,谷城,湖北省,420625
101200203,襄阳市,保康,湖北省,420626
101200206,襄阳市,老河口,湖北省,420682
101200208,襄阳市,枣阳,湖北省,420683
101200205,襄阳市,宜城,湖北省,420684
101200301,鄂州市,鄂州,湖北省,420700
101200302,鄂州市,梁子湖,湖北省,420702
101200303,鄂州市,华容区,湖北省,420703
101200304,鄂州市,鄂城,湖北省,420704
101201401,荆门市,荆门,湖北省,420800
101201406,荆门市,东宝,湖北省,420802
101201404,荆门市,掇刀,湖北省,420804
101201405,荆门市,沙洋,湖北省,420822
101201402,荆门市,钟祥,湖北省,420881
101201403,荆门市,京山,湖北省,420882
101200401,孝感市,孝感,湖北省,420900
101200408,孝感市,孝南,湖北省,420902
101200407,孝感市,孝昌,湖北省,420921
101200404,孝感市,大悟,湖北省,420922
101200403,孝感市,云梦,湖北省,420923
101200405,孝感市,应城,湖北省,420981
101200402,孝感市,安陆,湖北省,420982
101200406,孝感市,汉川,湖北省,420984
101200801,荆州市,荆州,湖北省,421000
101200808,荆州市,沙市,湖北省,421002
101201430,荆州市,荆州区,湖北省,421003
101200803,荆州市,公安,湖北省,421022
101200805,荆州市,监利,湖北省,421023
101200802,荆州市,江陵,湖北省,421024
101200804,荆州市,石首,湖北省,421081
101200806,荆州市,洪湖,湖北省,421083
101200807,荆州市,松滋,湖北省,421087
101200501,黄冈市,黄冈,湖北省,421100
101200511,黄冈市,黄州,湖北省,421102
101200510,黄冈市,团风,湖北省,421121
101200502,黄冈市,红安,湖北省,421122
101200504,黄冈市,罗田,湖北省,421123
101200505,黄冈市,英山,湖北省,421124
101200506,黄冈市,浠水,湖北省,421125
101200507,黄冈市,蕲春,湖北省,421126
101200508,黄冈市,黄梅,湖北省,421127
101200503,黄冈市,麻城,湖北省,421181
101200509,黄冈市,武穴,湖北省,421182
101200701,咸宁市,咸宁,湖北省,421200
101200707,咸宁市,咸安,湖北省,421202
101200703,咸宁市,嘉鱼,湖北省,421221
101200705,咸宁市,通城,湖北省,421222
101200704,咸宁市,崇阳,湖北省,421223
101200706,咸宁市,通山,湖北省,421224
101200702,咸宁市,赤壁,湖北省,421281
101201301,随州市,随州,湖北省,421300
101201303,随州市,曾都,湖北省,421303
101201304,随州市,随县,湖北省,421321
101201302,随州市,广水,湖北省,421381
101201001,恩施土家族苗族自治州,恩施,湖北省,422800
101201030,恩施土家族苗族自治州,恩施市,湖北省,422801
101201002,恩施土家族苗族自治州,利川,湖北省,422802
101201003,恩施土家族苗族自治州,建始,湖北省,422822
101201008,恩施土家族苗族自治州,巴东,湖北省,422823
101201005,恩施土家族苗族自治州,宣恩,湖北省,422825
101201004,恩施土家族苗族自治州,咸丰,湖北省,422826
101201007,恩施土家族苗族自治州,来凤,湖北省,422827
101201006,恩施土家族苗族自治州,鹤峰,湖北省,422828
101201601,仙桃市,仙桃,湖北省,429004
101201701,潜江市,潜江,湖北省,429005
101201501,天门市,天门,湖北省,429006
101201201,神农架林区,神农架,湖北省,429021
101250101,长沙市,长沙,湖南省,430100
101250107,长沙市,芙蓉,湖南省,430102
101250108,长沙市,天心,湖南省,430103
101250109,长沙市,岳麓,湖南省,430104
101250110,长沙市,开福,湖南省,430105
101250111,长沙市,雨花区,湖南省,430111
101250105,长沙市,望城,湖南省,430112
101250106,长沙市,长沙县,湖南省,430121
101250103,长沙市,浏阳,湖南省,430181
101250102,长沙市,宁乡,湖南省,430182
101250301,株洲市,株洲,湖南省,430200
101250304,株洲市,荷塘,湖南省,430202
101250307,株洲市,芦淞,湖南省,430203
101250308,株洲市,石峰,湖南省,430204
101250309,株洲市,天元,湖南省,430211
101250330,株洲市,渌口,湖南省,430212
101250302,株洲市,攸县,湖南省,430223
101250305,株洲市,茶陵,湖南省,430224
101250306,株洲市,炎陵,湖南省,430225
101250303,株洲市,醴陵,湖南省,430281
101250201,湘潭市,湘潭,湖南省,430300
101250204,湘潭市,雨湖,湖南省,430302
101250205,湘潭市,岳塘,湖南省,430304
101250230,湘潭市,湘潭县,湖南省,430321
101250203,湘潭市,湘乡,湖南省,430381
101250202,湘潭市,韶山,湖南省,430382
101250401,衡阳市,衡阳,湖南省,430400
101250410,衡阳市,珠晖,湖南省,430405
101250411,衡阳市,雁峰,湖南省,430406
101250412,衡阳市,石鼓,湖南省,430407
101250413,衡阳市,蒸湘,湖南省,430408
101250409,衡阳市,南岳,湖南省,430412
101250405,衡阳市,衡阳县,湖南省,430421
101250407,衡阳市,衡南,湖南省,430422
101250402,衡阳市,衡山,湖南省,430423
101250403,衡阳市,衡东,湖南省,430424
101250404,衡阳市,祁东,湖南省,430426
101250408,衡阳市,耒阳,湖南省,430481
101250406,衡阳市,常宁,湖南省,430482
101250901,邵阳市,邵阳,湖南省,430500
101250911,邵阳市,双清,湖南省,430502
101250912,邵阳市,大祥,湖南省,430503
101250913,邵阳市,北塔,湖南省,430511
101250905,邵阳市,邵东,湖南省,430521
101250904,邵阳市,新邵,湖南省,430522
101250910,邵阳市,邵阳县,湖南省,430523
101250902,邵阳市,隆回,湖南省,430524
101250903,邵阳市,洞口,湖南省,430525
101250906,邵阳市,绥宁,湖南省,430527
101250907,邵阳市,新宁,湖南省,430528
101250909,邵阳市,城步,湖南省,430529
101250908,邵阳市,武冈,湖南省,430581
101251001,岳阳市,岳阳,湖南省,430600
101251007,岳阳市,岳阳楼区,湖南省,430602
101251008,岳阳市,云溪,湖南省,430603
101251009,岳阳市,君山,湖南省,430611
101251030,岳阳市,岳阳县,湖南省,430621
101251002,岳阳市,华容,湖南省,430623
101251003,岳阳市,湘阴,湖南省,430624
101251005,岳阳市,平江,湖南省,430626
101251004,岳阳市,汨罗,湖南省,430681
101251006,岳阳市,临湘,湖南省,430682
101250601,常德市,常德,湖南省,430700
101250609,常德市,武陵,湖南省,430702
101250610,常德市,鼎城,湖南省,430703
101250602,常德市,安乡,湖南省,430721
101250604,常德市,汉寿,湖南省,430722
101250605,常德市,澧县,湖南省,430723
101250606,常德市,临澧,湖南省,430724
101250603,常德市,桃源,湖南省,430725
101250607,常德市,石门,湖南省,430726
101250608,常德市,津市,湖南省,430781
101251101,张家界市,张家界,湖南省,430800
101251105,张家界市,永定,湖南省,430802
101251104,张家界市,武陵源,湖南省,430811
101251103,张家界市,慈利,湖南省,430821
101251102,张家界市,桑植,湖南省,430822
101250700,益阳市,益阳,湖南省,430900
101250706,益阳市,资阳区,湖南省,430902
101250701,益阳市,赫山,湖南省,430903
101250702,益阳市,南县,湖南省,430921
101250703,益阳市,桃江,湖南省,430922
101250704,益阳市,安化,湖南省,430923
101250705,益阳市,沅江,湖南省,430981
101250501,郴州市,郴州,湖南省,431000
101250506,郴州市,北湖,湖南省,431002
101250512,郴州市,苏仙,湖南省,431003
101250502,郴州市,桂阳,湖南省,431021
101250504,郴州市,宜章,湖南省,431022
101250510,郴州市,永兴,湖南省,431023
101250503,郴州市,嘉禾,湖南省,431024
101250505,郴州市,临武,湖南省,431025
101250508,郴州市,汝城,湖南省,431026
101250511,郴州市,桂东,湖南省,431027
101250509,郴州市,安仁,湖南省,431028
101250507,郴州市,资兴,湖南省,431081
101251401,永州市,永州,湖南省,431100
101251412,永州市,零陵,湖南省,431102
101251411,永州市,冷水滩,湖南省,431103
101251402,永州市,祁阳,湖南省,431121
101251403,永州市,东安,湖南省,431122
101251404,永州市,双牌,湖南省,431123
101251405,永州市,道县,湖南省,431124
101251407,永州市,江永,湖南省,431125
101251406,永州市,宁远,湖南省,431126
101251408,永州市,蓝山,湖南省,431127
101251409,永州市,新田,湖南省,431128
101251410,永州市,江华,湖南省,431129
101251201,怀化市,怀化,湖南省,431200
101251202,怀化市,鹤城,湖南省,431202
101251212,怀化市,中方,湖南省,431221
101251203,怀化市,沅陵,湖南省,431222
101251204,怀化市,辰溪,湖南省,431223
101251211,怀化市,溆浦,湖南省,431224
101251206,怀化市,会同,湖南省,431225
101251208,怀化市,麻阳,湖南省,431226
101251209,怀化市,新晃,湖南省,431227
101251210,怀化市,芷江,湖南省,431228
101251205,怀化市,靖州,湖南省,431229
101251207,怀化市,通道,湖南省,431230
101251213,怀化市,洪江,湖南省,431281
101250801,娄底市,娄底,湖南省,431300
101250804,娄底市,娄星,湖南省,431302
101250802,娄底市,双峰,湖南省,431321
101250805,娄底市,新化,湖南省,431322
101250803,娄底市,冷水江,湖南省,431381
101250806,娄底市,涟源,湖南省,431382
101251509,湘西土家族苗族自治州,湘西,湖南省,433100
101251501,湘西土家族苗族自治州,吉首,湖南省,433101
101251506,湘西土家族苗族自治州,泸溪,湖南省,433122
101251505,湘西土家族苗族自治州,凤凰,湖南省,433123
101251508,湘西土家族苗族自治州,花垣,湖南省,433124
101251502,湘西土家族苗族自治州,保靖,湖南省,433125
101251504,湘西土家族苗族自治州,古丈,湖南省,433126
101251503,湘西土家族苗族自治州,永顺,湖南省,433127
101251507,湘西土家族苗族自治州,龙山,湖南省,433130
101280101,广州市,广州,广东省,440100
101280106,广州市,荔湾,广东省,440103
101280107,广州市,越秀,广东省,440104
101280108,广州市,海珠,广东省,440105
101280109,广州市,天河,广东省,440106
101280110,广州市,白云,广东省,440111
101280111,广州市,黄埔,广东省,440112
101280102,广州市,番禺,广东省,440113
101280105,广州市,花都,广东省,440114
101280112,广州市,南沙区,广东省,440115
101280103,广州市,从化,广东省,440117
101280104,广州市,增城,广东省,440118
101280201,韶关市,韶关,广东省,440200
101280211,韶关市,武江,广东省,440203
101280210,韶关市,浈江,广东省,440204
101280209,韶关市,曲江,广东省,440205
101280203,韶关市,始兴,广东省,440222
101280206,韶关市,仁化,广东省,440224
101280204,韶关市,翁源,广东省,440229
101280202,韶关市,乳源,广东省,440232
101280208,韶关市,新丰,广东省,440233
101280205,韶关市,乐昌,广东省,440281
101280207,韶关市,南雄,广东省,440282
101280601,深圳市,深圳,广东省,440300
101280602,深圳市,罗湖,广东省,440303
101280603,深圳市,福田,广东省,440304
101280604,深圳市,南山,广东省,440305
101280605,深圳市,宝安,广东省,440306
101280606,深圳市,龙岗,广东省,440307
101280607,深圳市,盐田,广东省,440308
101280608,深圳市,龙华,广东省,440309
101280609,深圳市,坪山,广东省,440310
101280630,深圳市,光明,广东省,440311
101280701,珠海市,珠海,广东省,440400
101280704,珠海市,香洲,广东省,440402
101280702,珠海市,斗门,广东省,440403
101280703,珠海市,金湾,广东省,440404
101280501,汕头市,汕头,广东省,440500
101280505,汕头市,龙湖,广东省,440507
101280506,汕头市,金平区,广东省,440511
101280507,汕头市,濠江,广东省,440512
101280502,汕头市,潮阳,广东省,440513
101280508,汕头市,潮南,广东省,440514
101280503,汕头市,澄海,广东省,440515
101280504,汕头市,南澳,广东省,440523
101280800,佛山市,佛山,广东省,440600
101280805,佛山市,禅城,广东省,440604
101280803,佛山市,南海区,广东省,440605
101280801,佛山市,顺德,广东省,440606
101280802,佛山市,三水,广东省,440607
101280804,佛山市,高明,广东省,440608
101281101,江门市,江门,广东省,440700
101281107,江门市,蓬江,广东省,440703
101281109,江门市,江海,广东省,440704
101281104,江门市,新会,广东省,440705
101281106,江门市,台山,广东省,440781
101281103,江门市,开平,广东省,440783
101281108,江门市,鹤山,广东省,440784
101281105,江门市,恩平,广东省,440785
101281001,湛江市,湛江,广东省,440800
101281006,湛江市,赤坎,广东省,440802
101281009,湛江市,霞山,广东省,440803
101281008,湛江市,坡头,广东省,440804
101281010,湛江市,麻章,广东省,440811
101281007,湛江市,遂溪,广东省,440823
101281004,湛江市,徐闻,广东省,440825
101281005,湛江市,廉江,广东省,440881
101281003,湛江市,雷州,广东省,440882
101281002,湛江市,吴川,广东省,440883
101282001,茂名市,茂名,广东省,440900
101282007,茂名市,茂南,广东省,440902
101282004,茂名市,电白,广东省,440904
101282002,茂名市,高州,广东省,440981
101282003,茂名市,化州,广东省,440982
101282005,茂名市,信宜,广东省,440983
101280901,肇庆市,肇庆,广东省,441200
101280904,肇庆市,端州,广东省,441202
101280909,肇庆市,鼎湖,广东省,441203
101280908,肇庆市,高要,广东省,441204
101280902,肇庆市,广宁,广东省,441223
101280906,肇庆市,怀集,广东省,441224
101280907,肇庆市,封开,广东省,441225
101280905,肇庆市,德庆,广东省,441226
101280903,肇庆市,四会,广东省,441284
101280301,惠州市,惠州,广东省,441300
101280306,惠州市,惠城,广东省,441302
101280303,惠州市,惠阳,广东省,441303
101280302,惠州市,博罗,广东省,441322
101280304,惠州市,惠东,广东省,441323
101280305,惠州市,龙门,广东省,441324
101280401,梅州市,梅州,广东省,441400
101280405,梅州市,梅江,广东省,441402
101280409,梅州市,梅县,广东省,441403
101280404,梅州市,大埔,广东省,441422
101280406,梅州市,丰顺,广东省,441423
101280408,梅州市,五华,广东省,441424
101280407,梅州市,平远,广东省,441426
101280403,梅州市,蕉岭,广东省,441427
101280402,梅州市,兴宁,广东省,441481
101282101,汕尾市,汕尾,广东省,441500
101282130,汕尾市,城区,广东省,441502
101282102,汕尾市,海丰,广东省,441521
101282104,汕尾市,陆河,广东省,441523
101282103,汕尾市,陆丰,广东省,441581
101281201,河源市,河源,广东省,441600
101281207,河源市,源城,广东省,441602
101281202,河源市,紫金,广东省,441621
101281205,河源市,龙川,广东省,441622
101281203,河源市,连平,广东省,441623
101281204,河源市,和平,广东省,441624
101281206,河源市,东源,广东省,441625
101281801,阳江市,阳江,广东省,441700
101281805,阳江市,江城区,广东省,441702
101281803,阳江市,阳东,广东省,441704
101281804,阳江市,阳西,广东省,441721
101281802,阳江市,阳春,广东省,441781
101281301,清远市,清远,广东省,441800
101281309,清远市,清城,广东省,441802
101281308,清远市,清新,广东省,441803
101281306,清远市,佛冈,广东省,441821
101281305,清远市,阳山,广东省,441823
101281304,清远市,连山,广东省,441825
101281302,清远市,连南,广东省,441826
101281307,清远市,英德,广东省,441881
101281303,清远市,连州,广东省,441882
101281601,东莞市,东莞,广东省,441900
101281701,中山市,中山,广东省,442000
101281501,潮州市,潮州,广东省,445100
101281504,潮州市,湘桥,广东省,445102
101281503,潮州市,潮安,广东省,445103
101281502,潮州市,饶平,广东省,445122
101281901,揭阳市,揭阳,广东省,445200
101281906,揭阳市,榕城,广东省,445202
101281905,揭阳市,揭东,广东省,445203
101281902,揭阳市,揭西,广东省,445222
101281904,揭阳市,惠来,广东省,445224
101281903,揭阳市,普宁,广东省,445281
101281401,云浮市,云浮,广东省,445300
101281405,云浮市,云城,广东省,445302
101281406,云浮市,云安,广东省,445303
101281403,云浮市,新兴,广东省,445321
101281404,云浮市,郁南,广东省,445322
101281402,云浮市,罗定,广东省,445381
101300101,南宁市,南宁,广西壮族自治区,450100
101300102,南宁市,兴宁区,广西壮族自治区,450102
101300110,南宁市,青秀,广西壮族自治区,450103
101300111,南宁市,江南区,广西壮族自治区,450105
101300112,南宁市,西乡塘,广西壮族自治区,450107
101300113,南宁市,良庆,广西壮族自治区,450108
101300103,南宁市,邕宁,广西壮族自治区,450109
101300108,南宁市,武鸣,广西壮族自治区,450110
101300105,南宁市,隆安,广西壮族自治区,450123
101300106,南宁市,马山,广西壮族自治区,450124
101300107,南宁市,上林,广西壮族自治区,450125
101300109,南宁市,宾阳,广西壮族自治区,450126
101300104,南宁市,横县,广西壮族自治区,450127
101300301,柳州市,柳州,广西壮族自治区,450200
101300303,柳州市,城中区,广西壮族自治区,450202
101300309,柳州市,鱼峰,广西壮族自治区,450203
101300310,柳州市,柳南,广西壮族自治区,450204
101300311,柳州市,柳北,广西壮族自治区,450205
101300305,柳州市,柳江,广西壮族自治区,450206
101300302,柳州市,柳城,广西壮族自治区,450222
101300304,柳州市,鹿寨,广西壮族自治区,450223
101300306,柳州市,融安,广西壮族自治区,450224
101300307,柳州市,融水,广西壮族自治区,450225
101300308,柳州市,三江,广西壮族自治区,450226
101300501,桂林市,桂林,广西壮族自治区,450300
101300502,桂林市,秀峰,广西壮族自治区,450302
101300515,桂林市,叠彩,广西壮族自治区,450303
101300516,桂林市,象山区,广西壮族自治区,450304
101300517,桂林市,七星,广西壮族自治区,450305
101300518,桂林市,雁山,广西壮族自治区,450311
101300505,桂林市,临桂,广西壮族自治区,450312
101300510,桂林市,阳朔,广西壮族自治区,450321
101300507,桂林市,灵川,广西壮族自治区,450323
101300508,桂林市,全州,广西壮族自治区,450324
101300506,桂林市,兴安,广西壮族自治区,450325
101300504,桂林市,永福,广西壮族自治区,450326
101300509,桂林市,灌阳,广西壮族自治区,450327
101300503,桂林市,龙胜,广西壮族自治区,450328
101300514,桂林市,资源,广西壮族自治区,450329
101300512,桂林市,平乐,广西壮族自治区,450330
101300511,桂林市,恭城,广西壮族自治区,450332
101300513,桂林市,荔浦,广西壮族自治区,450381
101300601,梧州市,梧州,广西壮族自治区,450400
101300603,梧州市,万秀,广西壮族自治区,450403
101300607,梧州市,长洲,广西壮族自治区,450405
101300608,梧州市,龙圩,广西壮族自治区,450406
101300604,梧州市,苍梧,广西壮族自治区,450421
101300602,梧州市,藤县,广西壮族自治区,450422
101300605,梧州市,蒙山,广西壮族自治区,450423
101300606,梧州市,岑溪,广西壮族自治区,450481
101301301,北海市,北海,广西壮族自治区,450500
101301304,北海市,海城区,广西壮族自治区,450502
101301305,北海市,银海,广西壮族自治区,450503
101301306,北海市,铁山港,广西壮族自治区,450512
101301302,北海市,合浦,广西壮族自治区,450521
101301401,防城港市,防城港,广西壮族自治区,450600
101301404,防城港市,港口区,广西壮族自治区,450602
101301405,防城港市,防城,广西壮族自治区,450603
101301402,防城港市,上思,广西壮族自治区,450621
101301403,防城港市,东兴,广西壮族自治区,450681
101301101,钦州市,钦州,广西壮族自治区,450700
101301104,钦州市,钦南,广西壮族自治区,450702
101301105,钦州市,钦北,广西壮族自治区,450703
101301103,钦州市,灵山,广西壮族自治区,450721
101301102,钦州市,浦北,广西壮族自治区,450722
101300801,贵港市,贵港,广西壮族自治区,450800
101300804,贵港市,港北,广西壮族自治区,450802
101300805,贵港市,港南,广西壮族自治区,450803
101300806,贵港市,覃塘,广西壮族自治区,450804
101300803,贵港市,平南,广西壮族自治区,450821
101300802,贵港市,桂平,广西壮族自治区,450881
101300901,玉林市,玉林,广西壮族自治区,450900
101300907,玉林市,玉州,广西壮族自治区,450902
101300908,玉林市,福绵,广西壮族自治区,450903
101300904,玉林市,容县,广西壮族自治区,450921
101300905,玉林市,陆川,广西壮族自治区,450922
101300902,玉林市,博白,广西壮族自治区,450923
101300906,玉林市,兴业,广西壮族自治区,450924
101300903,玉林市,北流,广西壮族自治区,450981
101301001,百色市,百色,广西壮族自治区,451000
101301013,百色市,右江,广西壮族自治区,451002
101301003,百色市,田阳,广西壮族自治区,451021
101301006,百色市,田东,广西壮族自治区,451022
101301007,百色市,平果,广西壮族自治区,451023
101301004,百色市,德保,广西壮族自治区,451024
101301002,百色市,那坡,广西壮族自治区,451026
101301011,百色市,凌云,广西壮族自治区,451027
101301010,百色市,乐业,广西壮族自治区,451028
101301012,百色市,田林,广西壮族自治区,451029
101301009,百色市,西林,广西壮族自治区,451030
101301008,百色市,隆林,广西壮族自治区,451031
101301005,百色市,靖西,广西壮族自治区,451081
101300701,贺州市,贺州,广西壮族自治区,451100
101300705,贺州市,八步,广西壮族自治区,451102
101300706,贺州市,平桂,广西壮族自治区,451103
101300702,贺州市,昭平,广西壮族自治区,451121
101300704,贺州市,钟山,广西壮族自治区,451122
101300703,贺州市,富川,广西壮族自治区,451123
101301201,河池市,河池,广西壮族自治区,451200
101301212,河池市,金城江,广西壮族自治区,451202
101301207,河池市,宜州,广西壮族自治区,451203
101301209,河池市,南丹,广西壮族自治区,451221
101301202,河池市,天峨,广西壮族自治区,451222
101301208,河池市,凤山,广西壮族自治区,451223
101301203,河池市,东兰,广西壮族自治区,451224
101301206,河池市,罗城,广西壮族自治区,451225
101301205,河池市,环江,广西壮族自治区,451226
101301204,河池市,巴马,广西壮族自治区,451227
101301210,河池市,都安,广西壮族自治区,451228
101301211,河池市,大化,广西壮族自治区,451229
101300401,来宾市,来宾,广西壮族自治区,451300
101300407,来宾市,兴宾,广西壮族自治区,451302
101300402,来宾市,忻城,广西壮族自治区,451321
101300404,来宾市,象州,广西壮族自治区,451322
101300405,来宾市,武宣,广西壮族自治区,451323
101300403,来宾市,金秀,广西壮族自治区,451324
101300406,来宾市,合山,广西壮族自治区,451381
101300201,崇左市,崇左,广西壮族自治区,451400
101300208,崇左市,江州,广西壮族自治区,451402
101300206,崇左市,扶绥,广西壮族自治区,451421
101300207,崇左市,宁明,广西壮族自治区,451422
101300203,崇左市,龙州,广西壮族自治区,451423
101300205,崇左市,大新,广西壮族自治区,451424
101300202,崇左市,天等,广西壮族自治区,451425
101300204,崇左市,凭祥,广西壮族自治区,451481
101310101,海口市,海口,海南省,460100
101310102,海口市,秀英,海南省,460105
101310103,海口市,龙华区,海南省,460106
101310104,海口市,琼山,海南省,460107
101310105,海口市,美兰,海南省,460108
101310201,三亚市,三亚,海南省,460200
101310213,三亚市,海棠区,海南省,460202
101310218,三亚市,吉阳区,海南省,460203
101310219,三亚市,天涯区,海南省,460204
101310223,三亚市,崖州区,海南省,460205
101310301,三沙市,三沙,海南省,460300
101310302,三沙市,西沙群岛,海南省,460321
101310304,三沙市,南沙群岛,海南省,460322
101310303,三沙市,中沙群岛,海南省,460323
101310205,儋州市,儋州,海南省,460400
101310222,五指山市,五指山,海南省,469001
101310211,琼海市,琼海,海南省,469002
101310212,文昌市,文昌,海南省,469005
101310215,万宁市,万宁,海南省,469006
101310202,东方市,东方,海南省,469007
101310209,定安县,定安,海南省,469021
101310210,屯昌县,屯昌,海南省,469022
101310204,澄迈县,澄迈,海南省,469023
101310203,临高县,临高,海南省,469024
101310207,白沙黎族自治县,白沙,海南省,469025
101310206,昌江黎族自治县,昌江,海南省,469026
101310221,乐东黎族自治县,乐东,海南省,469027
101310216,陵水黎族自治县,陵水,海南省,469028
101310214,保亭黎族苗族自治县,保亭,海南省,469029
101310208,琼中黎族苗族自治县,琼中,海南省,469030
101040100,重庆市,重庆,重庆市,500100
101041300,重庆市,万州,重庆市,500101
101041400,重庆市,涪陵,重庆市,500102
101041200,重庆市,渝中,重庆市,500103
101043500,重庆市,大渡口,重庆市,500104
101043700,重庆市,江北,重庆市,500105
101043800,重庆市,沙坪坝,重庆市,500106
101043900,重庆市,九龙坡,重庆市,500107
101044000,重庆市,南岸,重庆市,500108
101040800,重庆市,北碚,重庆市,500109
101043300,重庆市,綦江,重庆市,500110
101042600,重庆市,大足,重庆市,500111
101040700,重庆市,渝北,重庆市,500112
101040900,重庆市,巴南,重庆市,500113
101041100,重庆市,黔江,重庆市,500114
101041000,重庆市,长寿,重庆市,500115
101040500,重庆市,江津,重庆市,500116
101040300,重庆市,合川,重庆市,500117
101040200,重庆市,永川,重庆市,500118
101040400,重庆市,南川,重庆市,500119
101042900,重庆市,璧山,重庆市,500120
101042800,重庆市,铜梁,重庆市,500151
101042100,重庆市,潼南,重庆市,500152
101042700,重庆市,荣昌,重庆市,500153
101044100,重庆市,开州,重庆市,500154
101042300,重庆市,梁平,重庆市,500155
101043100,重庆市,武隆,重庆市,500156
101041600,重庆市,城口,重庆市,500229
101043000,重庆市,丰都,重庆市,500230
101042200,重庆市,垫江,重庆市,500231
101042400,重庆市,忠县,重庆市,500233
101041700,重庆市,云阳,重庆市,500235
101041900,重庆市,奉节,重庆市,500236
101042000,重庆市,巫山,重庆市,500237
101041800,重庆市,巫溪,重庆市,500238
101042500,重庆市,石柱,重庆市,500240
101043600,重庆市,秀山,重庆市,500241
101043400,重庆市,酉阳,重庆市,500242
101043200,重庆市,彭水,重庆市,500243
101270101,成都市,成都,四川省,510100
101270116,成都市,锦江,四川省,510104
101270117,成都市,青羊,四川省,510105
101270118,成都市,金牛,四川省,510106
101270119,成都市,武侯,四川省,510107
101270120,成都市,成华,四川省,510108
101270102,成都市,龙泉驿,四川省,510112
101270115,成都市,青白江,四川省,510113
101270103,成都市,新都,四川省,510114
101270104,成都市,温江,四川省,510115
101270106,成都市,双流,四川省,510116
101270107,成都市,郫都,四川省,510117
101270105,成都市,金堂,四川省,510121
101270108,成都市,大邑,四川省,510129
101270109,成都市,蒲江,四川省,510131
101270110,成都市,新津,四川省,510132
101270111,成都市,都江堰,四川省,510181
101270112,成都市,彭州,四川省,510182
101270113,成都市,邛崃,四川省,510183
101270114,成都市,崇州,四川省,510184
101270121,成都市,简阳,四川省,510185
101270301,自贡市,自贡,四川省,510300
101270304,自贡市,自流井,四川省,510302
101270305,自贡市,贡井,四川省,510303
101270306,自贡市,大安区,四川省,510304
101270307,自贡市,沿滩,四川省,510311
101270303,自贡市,荣县,四川省,510321
101270302,自贡市,富顺,四川省,510322
101270201,攀枝花市,攀枝花,四川省,510400
101270205,攀枝花市,东区,四川省,510402
101270206,攀枝花市,西区,四川省,510403
101270202,攀枝花市,仁和,四川省,510411
101270203,攀枝花市,米易,四川省,510421
101270204,攀枝花市,盐边,四川省,510422
101271001,泸州市,泸州,四川省,510500
101271002,泸州市,江阳,四川省,510502
101271007,泸州市,纳溪,四川省,510503
101271008,泸州市,龙马潭,四川省,510504
101271003,泸州市,泸县,四川省,510521
101271004,泸州市,合江,四川省,510522
101271005,泸州市,叙永,四川省,510524
101271006,泸州市,古蔺,四川省,510525
101272001,德阳市,德阳,四川省,510600
101272007,德阳市,旌阳,四川省,510603
101272006,德阳市,罗江,四川省,510604
101272002,德阳市,中江,四川省,510623
101272003,德阳市,广汉,四川省,510681
101272004,德阳市,什邡,四川省,510682
101272005,德阳市,绵竹,四川省,510683
101270401,绵阳市,绵阳,四川省,510700
101270409,绵阳市,涪城,四川省,510703
101270410,绵阳市,游仙,四川省,510704
101270411,绵阳市,安州,四川省,510705
101270402,绵阳市,三台,四川省,510722
101270403,绵阳市,盐亭,四川省,510723
101270405,绵阳市,梓潼,四川省,510725
101270406,绵阳市,北川,四川省,510726
101270407,绵阳市,平武,四川省,510727
101270408,绵阳市,江油,四川省,510781
101272101,广元市,广元,四川省,510800
101272106,广元市,利州,四川省,510802
101272107,广元市,昭化,四川省,510811
101272108,广元市,朝天,四川省,510812
101272102,广元市,旺苍,四川省,510821
101272103,广元市,青川,四川省,510822
101272104,广元市,剑阁,四川省,510823
101272105,广元市,苍溪,四川省,510824
101270701,遂宁市,遂宁,四川省,510900
101270704,遂宁市,船山,四川省,510903
101270705,遂宁市,安居,四川省,510904
101270702,遂宁市,蓬溪,四川省,510921
101270703,遂宁市,射洪,四川省,510922
101270706,遂宁市,大英,四川省,510923
101271201,内江市,内江,四川省,511000
101271206,内江市,市中区,四川省,511002
101271202,内江市,东兴区,四川省,511011
101271203,内江市,威远,四川省,511024
101271204,内江市,资中,四川省,511025
101271205,内江市,隆昌,四川省,511083
101271401,乐山市,乐山,四川省,511100
101271410,乐山市,市中区,四川省,511102
101271411,乐山市,沙湾区,四川省,511111
101271412,乐山市,五通桥,四川省,511112
101271413,乐山市,金口河,四川省,511113
101271402,乐山市,犍为,四川省,511123
101271403,乐山市,井研,四川省,511124
101271404,乐山市,夹江,四川省,511126
101271405,乐山市,沐川,四川省,511129
101271406,乐山市,峨边,四川省,511132
101271407,乐山市,马边,四川省,511133
101271409,乐山市,峨眉山,四川省,511181
101270501,南充市,南充,四川省,511300
101270508,南充市,顺庆,四川省,511302
101270509,南充市,高坪,四川省,511303
101270510,南充市,嘉陵,四川省,511304
101270502,南充市,南部,四川省,511321
101270503,南充市,营山,四川省,511322
101270504,南充市,蓬安,四川省,511323
101270505,南充市,仪陇,四川省,511324
101270506,南充市,西充,四川省,511325
101270507,南充市,阆中,四川省,511381
101271501,眉山市,眉山,四川省,511400
101271507,眉山市,东坡,四川省,511402
101271503,眉山市,彭山,四川省,511403
101271502,眉山市,仁寿,四川省,511421
101271504,眉山市,洪雅,四川省,511423
101271505,眉山市,丹棱,四川省,511424
101271506,眉山市,青神,四川省,511425
101271101,宜宾市,宜宾,四川省,511500
101271102,宜宾市,翠屏,四川省,511502
101271104,宜宾市,南溪,四川省,511503
101271130,宜宾市,叙州,四川省,511504
101271105,宜宾市,江安,四川省,511523
101271106,宜宾市,长宁,四川省,511524
101271107,宜宾市,高县,四川省,511525
101271108,宜宾市,珙县,四川省,511526
101271109,宜宾市,筠连,四川省,511527
101271110,宜宾市,兴文,四川省,511528
101271111,宜宾市,屏山,四川省,511529
101270801,广安市,广安,四川省,511600
101270830,广安市,广安区,四川省,511602
101270806,广安市,前锋,四川省,511603
101270802,广安市,岳池,四川省,511621
101270803,广安市,武胜,四川省,511622
101270804,广安市,邻水,四川省,511623
101270805,广安市,华蓥,四川省,511681
101270601,达州市,达州,四川省,511700
101270607,达州市,通川,四川省,511702
101270608,达州市,达川,四川省,511703
101270602,达州市,宣汉,四川省,511722
101270603,达州市,开江,四川省,511723
101270604,达州市,大竹,四川省,511724
101270605,达州市,渠县,四川省,511725
101270606,达州市,万源,四川省,511781
101271701,雅安市,雅安,四川省,511800
101271709,雅安市,雨城,四川省,511802
101271702,雅安市,名山,四川省,511803
101271703,雅安市,荥经,四川省,511822
101271704,雅安市,汉源,四川省,511823
101271705,雅安市,石棉,四川省,511824
101271706,雅安市,天全,四川省,511825
101271707,雅安市,芦山,四川省,511826
101271708,雅安市,宝兴,四川省,511827
101270901,巴中市,巴中,四川省,511900
101270905,巴中市,巴州,四川省,511902
101270906,巴中市,恩阳,四川省,511903
101270902,巴中市,通江,四川省,511921
101270903,巴中市,南江,四川省,511922
101270904,巴中市,平昌,四川省,511923
101271301,资阳市,资阳,四川省,512000
101271305,资阳市,雁江,四川省,512002
101271302,资阳市,安岳,四川省,512021
101271303,资阳市,乐至,四川省,512022
101271901,阿坝藏族羌族自治州,阿坝,四川省,513200
101271910,阿坝藏族羌族自治州,马尔康,四川省,513201
101271902,阿坝藏族羌族自治州,汶川,四川省,513221
101271903,阿坝藏族羌族自治州,理县,四川省,513222
101271904,阿坝藏族羌族自治州,茂县,四川省,513223
101271905,阿坝藏族羌族自治州,松潘,四川省,513224
101271906,阿坝藏族羌族自治州,九寨沟,四川省,513225
101271907,阿坝藏族羌族自治州,金川,四川省,513226
101271908,阿坝藏族羌族自治州,小金,四川省,513227
101271909,阿坝藏族羌族自治州,黑水,四川省,513228
101271911,阿坝藏族羌族自治州,壤塘,四川省,513230
101271930,阿坝藏族羌族自治州,阿坝县,四川省,513231
101271912,阿坝藏族羌族自治州,若尔盖,四川省,513232
101271913,阿坝藏族羌族自治州,红原,四川省,513233
101271801,甘孜藏族自治州,甘孜,四川省,513300
101271802,甘孜藏族自治州,康定,四川省,513301
101271803,甘孜藏族自治州,泸定,四川省,513322
101271804,甘孜藏族自治州,丹巴,四川省,513323
101271805,甘孜藏族自治州,九龙,四川省,513324
101271806,甘孜藏族自治州,雅江,四川省,513325
101271807,甘孜藏族自治州,道孚,四川省,513326
101271808,甘孜藏族自治州,炉霍,四川省,513327
101271830,甘孜藏族自治州,甘孜县,四川省,513328
101271809,甘孜藏族自治州,新龙,四川省,513329
101271810,甘孜藏族自治州,德格,四川省,513330
101271811,甘孜藏族自治州,白玉,四川省,513331
101271812,甘孜藏族自治州,石渠,四川省,513332
101271813,甘孜藏族自治州,色达,四川省,513333
101271814,甘孜藏族自治州,理塘,四川省,513334
101271815,甘孜藏族自治州,巴塘,四川省,513335
101271816,甘孜藏族自治州,乡城,四川省,513336
101271817,甘孜藏族自治州,稻城,四川省,513337
101271818,甘孜藏族自治州,得荣,四川省,513338
101271601,凉山彝族自治州,凉山,四川省,513400
101271610,凉山彝族自治州,西昌,四川省,513401
101271603,凉山彝族自治州,木里,四川省,513422
101271604,凉山彝族自治州,盐源,四川省,513423
101271605,凉山彝族自治州,德昌,四川省,513424
101271606,凉山彝族自治州,会理,四川省,513425
101271607,凉山彝族自治州,会东,四川省,513426
101271608,凉山彝族自治州,宁南,四川省,513427
101271609,凉山彝族自治州,普格,四川省,513428
101271619,凉山彝族自治州,布拖,四川省,513429
101271611,凉山彝族自治州,金阳,四川省,513430
101271612,凉山彝族自治州,昭觉,四川省,513431
101271613,凉山彝族自治州,喜德,四川省,513432
101271614,凉山彝族自治州,冕宁,四川省,513433
101271615,凉山彝族自治州,越西,四川省,513434
101271616,凉山彝族自治州,甘洛,四川省,513435
101271618,凉山彝族自治州,美姑,四川省,513436
101271617,凉山彝族自治州,雷波,四川省,513437
101260101,贵阳市,贵阳,贵州省,520100
101260111,贵阳市,南明,贵州省,520102
101260110,贵阳市,云岩,贵州省,520103
101260103,贵阳市,花溪,贵州省,520111
101260104,贵阳市,乌当,贵州省,520112
101260102,贵阳市,白云区,贵州省,520113
101260112,贵阳市,观山湖,贵州省,520115
101260106,贵阳市,开阳,贵州省,520121
101260105,贵阳市,息烽,贵州省,520122
101260107,贵阳市,修文,贵州省,520123
101260108,贵阳市,清镇,贵州省,520181
101260803,六盘水市,六盘水,贵州省,520200
101260805,六盘水市,钟山区,贵州省,520201
101260802,六盘水市,六枝,贵州省,520203
101260801,六盘水市,水城,贵州省,520221
101260804,六盘水市,盘州,贵州省,520281
101260201,遵义市,遵义,贵州省,520300
101260215,遵义市,红花岗,贵州省,520302
101260214,遵义市,汇川,贵州省,520303
101260216,遵义市,播州,贵州省,520304
101260207,遵义市,桐梓,贵州省,520322
101260204,遵义市,绥阳,贵州省,520323
101260211,遵义市,正安,贵州省,520324
101260210,遵义市,道真,贵州省,520325
101260212,遵义市,务川,贵州省,520326
101260206,遵义市,凤冈,贵州省,520327
101260205,遵义市,湄潭,贵州省,520328
101260213,遵义市,余庆,贵州省,520329
101260209,遵义市,习水,贵州省,520330
101260208,遵义市,赤水,贵州省,520381
101260203,遵义市,仁怀,贵州省,520382
101260301,安顺市,安顺,贵州省,520400
101260307,安顺市,西秀,贵州省,520402
101260304,安顺市,平坝,贵州省,520403
101260302,安顺市,普定,贵州省,520422
101260303,安顺市,镇宁,贵州省,520423
101260306,安顺市,关岭,贵州省,520424
101260305,安顺市,紫云,贵州省,520425
101260701,毕节市,毕节,贵州省,520500
101260709,毕节市,七星关,贵州省,520502
101260705,毕节市,大方,贵州省,520521
101260708,毕节市,黔西,贵州省,520522
101260703,毕节市,金沙,贵州省,520523
101260707,毕节市,织金,贵州省,520524
101260706,毕节市,纳雍,贵州省,520525
101260704,毕节市,威宁,贵州省,520526
101260702,毕节市,赫章,贵州省,520527
101260601,铜仁市,铜仁,贵州省,520600
101260606,铜仁市,碧江,贵州省,520602
101260604,铜仁市,万山,贵州省,520603
101260602,铜仁市,江口,贵州省,520621
101260603,铜仁市,玉屏,贵州省,520622
101260608,铜仁市,石阡,贵州省,520623
101260605,铜仁市,思南,贵州省,520624
101260607,铜仁市,印江,贵州省,520625
101260610,铜仁市,德江,贵州省,520626
101260609,铜仁市,沿河,贵州省,520627
101260611,铜仁市,松桃,贵州省,520628
101260906,黔西南布依族苗族自治州,黔西南,贵州省,522300
101260901,黔西南布依族苗族自治州,兴义,贵州省,522301
101260903,黔西南布依族苗族自治州,兴仁,贵州省,522302
101260909,黔西南布依族苗族自治州,普安,贵州省,522323
101260902,黔西南布依族苗族自治州,晴隆,贵州省,522324
101260904,黔西南布依族苗族自治州,贞丰,贵州省,522325
101260905,黔西南布依族苗族自治州,望谟,贵州省,522326
101260908,黔西南布依族苗族自治州,册亨,贵州省,522327
101260907,黔西南布依族苗族自治州,安龙,贵州省,522328
101260506,黔东南苗族侗族自治州,黔东南,贵州省,522600
101260501,黔东南苗族侗族自治州,凯里,贵州省,522601
101260505,黔东南苗族侗族自治州,黄平,贵州省,522622
101260503,黔东南苗族侗族自治州,施秉,贵州省,522623
101260509,黔东南苗族侗族自治州,三穗,贵州省,522624
101260504,黔东南苗族侗族自治州,镇远,贵州省,522625
101260502,黔东南苗族侗族自治州,岑巩,贵州省,522626
101260514,黔东南苗族侗族自治州,天柱,贵州省,522627
101260515,黔东南苗族侗族自治州,锦屏,贵州省,522628
101260511,黔东南苗族侗族自治州,剑河,贵州省,522629
101260510,黔东南苗族侗族自治州,台江,贵州省,522630
101260513,黔东南苗族侗族自治州,黎平,贵州省,522631
101260516,黔东南苗族侗族自治州,榕江,贵州省,522632
101260517,黔东南苗族侗族自治州,从江,贵州省,522633
101260512,黔东南苗族侗族自治州,雷山,贵州省,522634
101260507,黔东南苗族侗族自治州,麻江,贵州省,522635
101260508,黔东南苗族侗族自治州,丹寨,贵州省,522636
101260413,黔南布依族苗族自治州,黔南,贵州省,522700
101260401,黔南布依族苗族自治州,都匀,贵州省,522701
101260405,黔南布依族苗族自治州,福泉,贵州省,522702
101260412,黔南布依族苗族自治州,荔波,贵州省,522722
101260402,黔南布依族苗族自治州,贵定,贵州省,522723
101260403,黔南布依族苗族自治州,瓮安,贵州省,522725
101260410,黔南布依族苗族自治州,独山,贵州省,522726
101260409,黔南布依族苗族自治州,平塘,贵州省,522727
101260408,黔南布依族苗族自治州,罗甸,贵州省,522728
101260404,黔南布依族苗族自治州,长顺,贵州省,522729
101260407,黔南布依族苗族自治州,龙里,贵州省,522730
101260406,黔南布依族苗族自治州,惠水,贵州省,522731
101260411,黔南布依族苗族自治州,三都,贵州省,522732
101290101,昆明市,昆明,云南省,530100
101290102,昆明市,五华区,云南省,530102
101290114,昆明市,盘龙,云南省,530103
101290115,昆明市,官渡,云南省,530111
101290116,昆明市,西山,云南省,530112
101290103,昆明市,东川,云南省,530113
101290108,昆明市,呈贡,云南省,530114
101290105,昆明市,晋宁,云南省,530115
101290109,昆明市,富民,云南省,530124
101290106,昆明市,宜良,云南省,530125
101290107,昆明市,石林,云南省,530126
101290110,昆明市,嵩明,云南省,530127
101290111,昆明市,禄劝,云南省,530128
101290104,昆明市,寻甸,云南省,530129
101290112,昆明市,安宁,云南省,530181
101290401,曲靖市,曲靖,云南省,530300
101290410,曲靖市,麒麟,云南省,530302
101290402,曲靖市,沾益,云南省,530303
101290405,曲靖市,马龙,云南省,530304
101290403,曲靖市,陆良,云南省,530322
101290406,曲靖市,师宗,云南省,530323
101290407,曲靖市,罗平,云南省,530324
101290404,曲靖市,富源,云南省,530325
101290408,曲靖市,会泽,云南省,530326
101290409,曲靖市,宣威,云南省,530381
101290701,玉溪市,玉溪,云南省,530400
101290710,玉溪市,红塔,云南省,530402
101290703,玉溪市,江川,云南省,530403
101290702,玉溪市,澄江,云南省,530422
101290704,玉溪市,通海,云南省,530423
101290705,玉溪市,华宁,云南省,530424
101290707,玉溪市,易门,云南省,530425
101290708,玉溪市,峨山,云南省,530426
101290706,玉溪市,新平,云南省,530427
101290709,玉溪市,元江,云南省,530428
101290501,保山市,保山,云南省,530500
101290502,保山市,隆阳,云南省,530502
101290504,保山市,施甸,云南省,530521
101290503,保山市,龙陵,云南省,530523
101290505,保山市,昌宁,云南省,530524
101290506,保山市,腾冲,云南省,530581
101291001,昭通市,昭通,云南省,530600
101291012,昭通市,昭阳,云南省,530602
101291002,昭通市,鲁甸,云南省,530621
101291006,昭通市,巧家,云南省,530622
101291009,昭通市,盐津,云南省,530623
101291010,昭通市,大关,云南省,530624
101291008,昭通市,永善,云南省,530625
101291007,昭通市,绥江,云南省,530626
101291004,昭通市,镇雄,云南省,530627
101291003,昭通市,彝良,云南省,530628
101291005,昭通市,威信,云南省,530629
101291011,昭通市,水富,云南省,530681
101291401,丽江市,丽江,云南省,530700
101291405,丽江市,古城区,云南省,530702
101291406,丽江市,玉龙,云南省,530721
101291402,丽江市,永胜,云南省,530722
101291403,丽江市,华坪,云南省,530723
101291404,丽江市,宁蒗,云南省,530724
101290901,普洱市,普洱,云南省,530800
101290905,普洱市,思茅,云南省,530802
101290912,普洱市,宁洱,云南省,530821
101290906,普洱市,墨江,云南省,530822
101290903,普洱市,景东,云南省,530823
101290902,普洱市,景谷,云南省,530824
101290911,普洱市,镇沅,云南省,530825
101290907,普洱市,江城,云南省,530826
101290908,普洱市,孟连,云南省,530827
101290904,普洱市,澜沧,云南省,530828
101290909,普洱市,西盟,云南省,530829
101291101,临沧市,临沧,云南省,530900
101291109,临沧市,临翔,云南省,530902
101291105,临沧市,凤庆,云南省,530921
101291107,临沧市,云县,云南省,530922
101291106,临沧市,永德,云南省,530923
101291108,临沧市,镇康,云南省,530924
101291104,临沧市,双江,云南省,530925
101291103,临沧市,耿马,云南省,530926
101291102,临沧市,沧源,云南省,530927
101290801,楚雄彝族自治州,楚雄,云南省,532300
101290830,楚雄彝族自治州,楚雄市,云南省,532301
101290809,楚雄彝族自治州,双柏,云南省,532322
101290805,楚雄彝族自治州,牟定,云南省,532323
101290806,楚雄彝族自治州,南华,云南省,532324
101290804,楚雄彝族自治州,姚安,云南省,532325
101290802,楚雄彝族自治州,大姚,云南省,532326
101290810,楚雄彝族自治州,永仁,云南省,532327
101290803,楚雄彝族自治州,元谋,云南省,532328
101290807,楚雄彝族自治州,武定,云南省,532329
101290808,楚雄彝族自治州,禄丰,云南省,532331
101290301,红河哈尼族彝族自治州,红河,云南省,532500
101290308,红河哈尼族彝族自治州,个旧,云南省,532501
101290307,红河哈尼族彝族自治州,开远,云南省,532502
101290309,红河哈尼族彝族自治州,蒙自,云南省,532503
101290304,红河哈尼族彝族自治州,弥勒,云南省,532504
101290310,红河哈尼族彝族自治州,屏边,云南省,532523
101290303,红河哈尼族彝族自治州,建水,云南省,532524
101290302,红河哈尼族彝族自治州,石屏,云南省,532525
101290311,红河哈尼族彝族自治州,泸西,云南省,532527
101290305,红河哈尼族彝族自治州,元阳,云南省,532528
101290330,红河哈尼族彝族自治州,红河县,云南省,532529
101290312,红河哈尼族彝族自治州,金平,云南省,532530
101290306,红河哈尼族彝族自治州,绿春,云南省,532531
101290313,红河哈尼族彝族自治州,河口,云南省,532532
101290601,文山壮族苗族自治州,文山,云南省,532600
101290630,文山壮族苗族自治州,文山市,云南省,532601
101290605,文山壮族苗族自治州,砚山,云南省,532622
101290602,文山壮族苗族自治州,西畴,云南省,532623
101290604,文山壮族苗族自治州,麻栗坡,云南省,532624
101290603,文山壮族苗族自治州,马关,云南省,532625
101290606,文山壮族苗族自治州,丘北,云南省,532626
101290607,文山壮族苗族自治州,广南,云南省,532627
101290608,文山壮族苗族自治州,富宁,云南省,532628
101291602,西双版纳傣族自治州,西双版纳,云南省,532800
101291601,西双版纳傣族自治州,景洪,云南省,532801
101291603,西双版纳傣族自治州,勐海,云南省,532822
101291605,西双版纳傣族自治州,勐腊,云南省,532823
101290201,大理白族自治州,大理,云南省,532900
101290230,大理白族自治州,大理市,云南省,532901
101290203,大理白族自治州,漾濞,云南省,532922
101290207,大理白族自治州,祥云,云南省,532923
101290205,大理白族自治州,宾川,云南省,532924
101290206,大理白族自治州,弥渡,云南省,532925
101290212,大理白族自治州,南涧,云南省,532926
101290208,大理白族自治州,巍山,云南省,532927
101290204,大理白族自治州,永平,云南省,532928
101290202,大理白族自治州,云龙,云南省,532929
101290210,大理白族自治州,洱源,云南省,532930
101290209,大理白族自治州,剑川,云南省,532931
101290211,大理白族自治州,鹤庆,云南省,532932
101291501,德宏傣族景颇族自治州,德宏,云南省,533100
101291506,德宏傣族景颇族自治州,瑞丽,云南省,533102
101291508,德宏傣族景颇族自治州,芒市,云南省,533103
101291507,德宏傣族景颇族自治州,梁河,云南省,533122
101291504,德宏傣族景颇族自治州,盈江,云南省,533123
101291503,德宏傣族景颇族自治州,陇川,云南省,533124
101291201,怒江傈僳族自治州,怒江,云南省,533300
101291205,怒江傈僳族自治州,泸水,云南省,533301
101291203,怒江傈僳族自治州,福贡,云南省,533323
101291207,怒江傈僳族自治州,贡山,云南省,533324
101291204,怒江傈僳族自治州,兰坪,云南省,533325
101291305,迪庆藏族自治州,迪庆,云南省,533400
101291301,迪庆藏族自治州,香格里拉,云南省,533401
101291302,迪庆藏族自治州,德钦,云南省,533422
101291303,迪庆藏族自治州,维西,云南省,533423
101140101,拉萨市,拉萨,西藏自治区,540100
101140109,拉萨市,城关区,西藏自治区,540102
101140105,拉萨市,堆龙德庆,西藏自治区,540103
101140107,拉萨市,达孜,西藏自治区,540104
101140104,拉萨市,林周,西藏自治区,540121
101140102,拉萨市,当雄,西藏自治区,540122
101140103,拉萨市,尼木,西藏自治区,540123
101140106,拉萨市,曲水,西藏自治区,540124
101140108,拉萨市,墨竹工卡,西藏自治区,540127
101140201,日喀则市,日喀则,西藏自治区,540200
101140215,日喀则市,桑珠孜,西藏自治区,540202
101140203,日喀则市,南木林,西藏自治区,540221
101140206,日喀则市,江孜,西藏自治区,540222
101140205,日喀则市,定日,西藏自治区,540223
101140213,日喀则市,萨迦,西藏自治区,540224
101140202,日喀则市,拉孜,西藏自治区,540225
101140211,日喀则市,昂仁,西藏自治区,540226
101140214,日喀则市,谢通门,西藏自治区,540227
101140217,日喀则市,白朗,西藏自治区,540228
101140220,日喀则市,仁布,西藏自治区,540229
101140219,日喀则市,康马,西藏自治区,540230
101140212,日喀则市,定结,西藏自治区,540231
101140208,日喀则市,仲巴,西藏自治区,540232
101140218,日喀则市,亚东,西藏自治区,540233
101140210,日喀则市,吉隆,西藏自治区,540234
101140204,日喀则市,聂拉木,西藏自治区,540235
101140209,日喀则市,萨嘎,西藏自治区,540236
101140216,日喀则市,岗巴,西藏自治区,540237
101140501,昌都市,昌都,西藏自治区,540300
101140512,昌都市,卡若,西藏自治区,540302
101140509,昌都市,江达,西藏自治区,540321
101140511,昌都市,贡觉,西藏自治区,540322
101140507,昌都市,类乌齐,西藏自治区,540323
101140502,昌都市,丁青,西藏自治区,540324
101140510,昌都市,察雅,西藏自治区,540325
101140508,昌都市,八宿,西藏自治区,540326
101140505,昌都市,左贡,西藏自治区,540327
101140506,昌都市,芒康,西藏自治区,540328
101140504,昌都市,洛隆,西藏自治区,540329
101140503,昌都市,边坝,西藏自治区,540330
101140401,林芝市,林芝,西藏自治区,540400
101140408,林芝市,巴宜,西藏自治区,540402
101140405,林芝市,工布江达,西藏自治区,540421
101140403,林芝市,米林,西藏自治区,540422
101140407,林芝市,墨脱,西藏自治区,540423
101140402,林芝市,波密,西藏自治区,540424
101140404,林芝市,察隅,西藏自治区,540425
101140406,林芝市,朗县,西藏自治区,540426
101140301,山南市,山南,西藏自治区,540500
101140309,山南市,乃东,西藏自治区,540502
101140303,山南市,扎囊,西藏自治区,540521
101140302,山南市,贡嘎,西藏自治区,540522
101140310,山南市,桑日,西藏自治区,540523
101140313,山南市,琼结,西藏自治区,540524
101140314,山南市,曲松,西藏自治区,540525
101140312,山南市,措美,西藏自治区,540526
101140311,山南市,洛扎,西藏自治区,540527
101140304,山南市,加查,西藏自治区,540528
101140307,山南市,隆子,西藏自治区,540529
101140306,山南市,错那,西藏自治区,540530
101140305,山南市,浪卡子,西藏自治区,540531
101140601,那曲市,那曲,西藏自治区,540600
101140612,那曲市,色尼,西藏自治区,540602
101140603,那曲市,嘉黎,西藏自治区,540621
101140609,那曲市,比如,西藏自治区,540622
101140607,那曲市,聂荣,西藏自治区,540623
101140605,那曲市,安多,西藏自治区,540624
101140611,那曲市,申扎,西藏自治区,540625
101140606,那曲市,索县,西藏自治区,540626
101140604,那曲市,班戈,西藏自治区,540627
101140608,那曲市,巴青,西藏自治区,540628
101140602,那曲市,尼玛,西藏自治区,540629
101140610,那曲市,双湖,西藏自治区,540630
101140701,阿里地区,阿里地区,西藏自治区,542500
101140705,阿里地区,普兰,西藏自治区,542521
101140706,阿里地区,札达,西藏自治区,542522
101140707,阿里地区,噶尔,西藏自治区,542523
101140708,阿里地区,日土,西藏自治区,542524
101140709,阿里地区,革吉,西藏自治区,542525
101140702,阿里地区,改则,西藏自治区,542526
101140710,阿里地区,措勤,西藏自治区,542527
101110101,西安市,西安,陕西省,610100
101110108,西安市,新城区,陕西省,610102
101110109,西安市,碑林,陕西省,610103
101110110,西安市,莲湖,陕西省,610104
101110111,西安市,灞桥,陕西省,610111
101110112,西安市,未央,陕西省,610112
101110113,西安市,雁塔,陕西省,610113
101110114,西安市,阎良,陕西省,610114
101110103,西安市,临潼,陕西省,610115
101110102,西安市,长安,陕西省,610116
101110107,西安市,高陵,陕西省,610117
101110106,西安市,鄠邑,陕西省,610118
101110104,西安市,蓝田,陕西省,610122
101110105,西安市,周至,陕西省,610124
101111001,铜川市,铜川,陕西省,610200
101111005,铜川市,王益,陕西省,610202
101111006,铜川市,印台,陕西省,610203
101111004,铜川市,耀州,陕西省,610204
101111003,铜川市,宜君,陕西省,610222
101110901,宝鸡市,宝鸡,陕西省,610300
101110902,宝鸡市,渭滨,陕西省,610302
101110913,宝鸡市,金台,陕西省,610303
101110912,宝鸡市,陈仓,陕西省,610304
101110906,宝鸡市,凤翔,陕西省,610322
101110905,宝鸡市,岐山,陕西省,610323
101110907,宝鸡市,扶风,陕西省,610324
101110908,宝鸡市,眉县,陕西省,610326
101110911,宝鸡市,陇县,陕西省,610327
101110903,宝鸡市,千阳,陕西省,610328
101110904,宝鸡市,麟游,陕西省,610329
101110910,宝鸡市,凤县,陕西省,610330
101110909,宝鸡市,太白,陕西省,610331
101110200,咸阳市,咸阳,陕西省,610400
101110212,咸阳市,秦都,陕西省,610402
101111102,咸阳市,杨陵,陕西省,610403
101110213,咸阳市,渭城,陕西省,610404
101110201,咸阳市,三原,陕西省,610422
101110205,咸阳市,泾阳,陕西省,610423
101110207,咸阳市,乾县,陕西省,610424
101110202,咸阳市,礼泉,陕西省,610425
101110203,咸阳市,永寿,陕西省,610426
101110209,咸阳市,长武,陕西省,610428
101110210,咸阳市,旬邑,陕西省,610429
101110204,咸阳市,淳化,陕西省,610430
101110206,咸阳市,武功,陕西省,610431
101110211,咸阳市,兴平,陕西省,610481
101110230,咸阳市,彬州,陕西省,610482
101110501,渭南市,渭南,陕西省,610500
101110512,渭南市,临渭,陕西省,610502
101110513,渭南市,华州,陕西省,610503
101110503,渭南市,潼关,陕西省,610522
101110504,渭南市,大荔,陕西省,610523
101110509,渭南市,合阳,陕西省,610524
101110508,渭南市,澄城,陕西省,610525
101110507,渭南市,蒲城,陕西省,610526
101110505,渭南市,白水,陕西省,610527
101110506,渭南市,富平,陕西省,610528
101110510,渭南市,韩城,陕西省,610581
101110511,渭南市,华阴,陕西省,610582
101110300,延安市,延安,陕西省,610600
101110313,延安市,宝塔,陕西省,610602
101110307,延安市,安塞,陕西省,610603
101110301,延安市,延长,陕西省,610621
101110302,延安市,延川,陕西省,610622
101110303,延安市,子长,陕西省,610623
101110306,延安市,志丹,陕西省,610625
101110312,延安市,吴起,陕西省,610626
101110308,延安市,甘泉,陕西省,610627
101110305,延安市,富县,陕西省,610628
101110309,延安市,洛川,陕西省,610629
101110304,延安市,宜川,陕西省,610630
101110311,延安市,黄龙,陕西省,610631
101110310,延安市,黄陵,陕西省,610632
101110801,汉中市,汉中,陕西省,610700
101110812,汉中市,汉台,陕西省,610702
101110810,汉中市,南郑,陕西省,610703
101110806,汉中市,城固,陕西省,610722
101110805,汉中市,洋县,陕西省,610723
101110807,汉中市,西乡,陕西省,610724
101110803,汉中市,勉县,陕西省,610725
101110809,汉中市,宁强,陕西省,610726
101110802,汉中市,略阳,陕西省,610727
101110811,汉中市,镇巴,陕西省,610728
101110804,汉中市,留坝,陕西省,610729
101110808,汉中市,佛坪,陕西省,610730
101110401,榆林市,榆林,陕西省,610800
101110413,榆林市,榆阳,陕西省,610802
101110407,榆林市,横山,陕西省,610803
101110402,榆林市,府谷,陕西省,610822
101110406,榆林市,靖边,陕西省,610824
101110405,榆林市,定边,陕西省,610825
101110410,榆林市,绥德,陕西省,610826
101110408,榆林市,米脂,陕西省,610827
101110404,榆林市,佳县,陕西省,610828
101110411,榆林市,吴堡,陕西省,610829
101110412,榆林市,清涧,陕西省,610830
101110409,榆林市,子洲,陕西省,610831
101110403,榆林市,神木,陕西省,610881
101110701,安康市,安康,陕西省,610900
101110711,安康市,汉滨,陕西省,610902
101110704,安康市,汉阴,陕西省,610921
101110703,安康市,石泉,陕西省,610922
101110710,安康市,宁陕,陕西省,610923
101110702,安康市,紫阳,陕西省,610924
101110706,安康市,岚皋,陕西省,610925
101110707,安康市,平利,陕西省,610926
101110709,安康市,镇坪,陕西省,610927
101110705,安康市,旬阳,陕西省,610928
101110708,安康市,白河,陕西省,610929
101110601,商洛市,商洛,陕西省,611000
101110604,商洛市,商州,陕西省,611002
101110602,商洛市,洛南,陕西省,611021
101110606,商洛市,丹凤,陕西省,611022
101110607,商洛市,商南,陕西省,611023
101110608,商洛市,山阳,陕西省,611024
101110605,商洛市,镇安,陕西省,611025
101110603,商洛市,柞水,陕西省,611026
101160101,兰州市,兰州,甘肃省,620100
101160105,兰州市,城关,甘肃省,620102
101160106,兰州市,七里河,甘肃省,620103
101160107,兰州市,西固,甘肃省,620104
101160108,兰州市,安宁区,甘肃省,620105
101160109,兰州市,红古,甘肃省,620111
101160103,兰州市,永登,甘肃省,620121
101160102,兰州市,皋兰,甘肃省,620122
101160104,兰州市,榆中,甘肃省,620123
101161401,嘉峪关市,嘉峪关,甘肃省,620200
101160601,金昌市,金昌,甘肃省,620300
101160603,金昌市,金川区,甘肃省,620302
101160602,金昌市,永昌,甘肃省,620321
101161301,白银市,白银,甘肃省,620400
101161330,白银市,白银区,甘肃省,620402
101161304,白银市,平川,甘肃省,620403
101161302,白银市,靖远,甘肃省,620421
101161303,白银市,会宁,甘肃省,620422
101161305,白银市,景泰,甘肃省,620423
101160901,天水市,天水,甘肃省,620500
101160902,天水市,秦州,甘肃省,620502
101160908,天水市,麦积,甘肃省,620503
101160903,天水市,清水,甘肃省,620521
101160904,天水市,秦安,甘肃省,620522
101160905,天水市,甘谷,甘肃省,620523
101160906,天水市,武山,甘肃省,620524
101160907,天水市,张家川,甘肃省,620525
101160501,武威市,武威,甘肃省,620600
101160504,武威市,凉州,甘肃省,620602
101160502,武威市,民勤,甘肃省,620621
101160503,武威市,古浪,甘肃省,620622
101160505,武威市,天祝,甘肃省,620623
101160701,张掖市,张掖,甘肃省,620700
101160707,张掖市,甘州,甘肃省,620702
101160702,张掖市,肃南,甘肃省,620721
101160703,张掖市,民乐,甘肃省,620722
101160704,张掖市,临泽,甘肃省,620723
101160705,张掖市,高台,甘肃省,620724
101160706,张掖市,山丹,甘肃省,620725
101160301,平凉市,平凉,甘肃省,620800
101160308,平凉市,崆峒,甘肃省,620802
101160302,平凉市,泾川,甘肃省,620821
101160303,平凉市,灵台,甘肃省,620822
101160304,平凉市,崇信,甘肃省,620823
101160306,平凉市,庄浪,甘肃省,620825
101160307,平凉市,静宁,甘肃省,620826
101160305,平凉市,华亭,甘肃省,620881
101160801,酒泉市,酒泉,甘肃省,620900
101160802,酒泉市,肃州,甘肃省,620902
101160803,酒泉市,金塔,甘肃省,620921
101160805,酒泉市,瓜州,甘肃省,620922
101160806,酒泉市,肃北,甘肃省,620923
101160804,酒泉市,阿克塞,甘肃省,620924
101160807,酒泉市,玉门,甘肃省,620981
101160808,酒泉市,敦煌,甘肃省,620982
101160401,庆阳市,庆阳,甘肃省,621000
101160402,庆阳市,西峰,甘肃省,621002
101160409,庆阳市,庆城,甘肃省,621021
101160403,庆阳市,环县,甘肃省,621022
101160404,庆阳市,华池,甘肃省,621023
101160405,庆阳市,合水,甘肃省,621024
101160406,庆阳市,正宁,甘肃省,621025
101160407,庆阳市,宁县,甘肃省,621026
101160408,庆阳市,镇原,甘肃省,621027
101160201,定西市,定西,甘肃省,621100
101160208,定西市,安定,甘肃省,621102
101160202,定西市,通渭,甘肃省,621121
101160203,定西市,陇西,甘肃省,621122
101160204,定西市,渭源,甘肃省,621123
101160205,定西市,临洮,甘肃省,621124
101160206,定西市,漳县,甘肃省,621125
101160207,定西市,岷县,甘肃省,621126
101161010,陇南市,陇南,甘肃省,621200
101161001,陇南市,武都,甘肃省,621202
101161002,陇南市,成县,甘肃省,621221
101161003,陇南市,文县,甘肃省,621222
101161004,陇南市,宕昌,甘肃省,621223
101161005,陇南市,康县,甘肃省,621224
101161006,陇南市,西和,甘肃省,621225
101161007,陇南市,礼县,甘肃省,621226
101161008,陇南市,徽县,甘肃省,621227
101161009,陇南市,两当,甘肃省,621228
101161101,临夏回族自治州,临夏,甘肃省,622900
101161130,临夏回族自治州,临夏市,甘肃省,622901
101161131,临夏回族自治州,临夏县,甘肃省,622921
101161102,临夏回族自治州,康乐,甘肃省,622922
101161103,临夏回族自治州,永靖,甘肃省,622923
101161104,临夏回族自治州,广河,甘肃省,622924
101161105,临夏回族自治州,和政,甘肃省,622925
101161106,临夏回族自治州,东乡,甘肃省,622926
101161107,临夏回族自治州,积石山,甘肃省,622927
101161209,甘南藏族自治州,甘南,甘肃省,623000
101161201,甘南藏族自治州,合作,甘肃省,623001
101161202,甘南藏族自治州,临潭,甘肃省,623021
101161203,甘南藏族自治州,卓尼,甘肃省,623022
101161204,甘南藏族自治州,舟曲,甘肃省,623023
101161205,甘南藏族自治州,迭部,甘肃省,623024
101161206,甘南藏族自治州,玛曲,甘肃省,623025
101161207,甘南藏族自治州,碌曲,甘肃省,623026
101161208,甘南藏族自治州,夏河,甘肃省,623027
101150101,西宁市,西宁,青海省,630100
101150105,西宁市,城东区,青海省,630102
101150106,西宁市,城中区,青海省,630103
101150107,西宁市,城西区,青海省,630104
101150108,西宁市,城北区,青海省,630105
101150102,西宁市,大通,青海省,630121
101150104,西宁市,湟中,青海省,630122
101150103,西宁市,湟源,青海省,630123
101150207,海东市,海东,青海省,630200
101150202,海东市,乐都,青海省,630202
101150201,海东市,平安,青海省,630203
101150203,海东市,民和,青海省,630222
101150204,海东市,互助,青海省,630223
101150205,海东市,化隆,青海省,630224
101150206,海东市,循化,青海省,630225
101150804,海北藏族自治州,海北,青海省,632200
101150802,海北藏族自治州,门源,青海省,632221
101150803,海北藏族自治州,祁连,青海省,632222
101150801,海北藏族自治州,海晏,青海省,632223
101150806,海北藏族自治州,刚察,青海省,632224
101150305,黄南藏族自治州,黄南,青海省,632300
101150301,黄南藏族自治州,同仁,青海省,632321
101150302,黄南藏族自治州,尖扎,青海省,632322
101150303,黄南藏族自治州,泽库,青海省,632323
101150304,黄南藏族自治州,河南,青海省,632324
101150402,海南藏族自治州,海南,青海省,632500
101150401,海南藏族自治州,共和,青海省,632521
101150408,海南藏族自治州,同德,青海省,632522
101150404,海南藏族自治州,贵德,青海省,632523
101150406,海南藏族自治州,兴海,青海省,632524
101150407,海南藏族自治州,贵南,青海省,632525
101150507,果洛藏族自治州,果洛,青海省,632600
101150501,果洛藏族自治州,玛沁,青海省,632621
101150502,果洛藏族自治州,班玛,青海省,632622
101150503,果洛藏族自治州,甘德,青海省,632623
101150504,果洛藏族自治州,达日,青海省,632624
101150505,果洛藏族自治州,久治,青海省,632625
101150506,果洛藏族自治州,玛多,青海省,632626
101150601,玉树藏族自治州,玉树,青海省,632700
101150630,玉树藏族自治州,玉树市,青海省,632701
101150604,玉树藏族自治州,杂多,青海省,632722
101150602,玉树藏族自治州,称多,青海省,632723
101150603,玉树藏族自治州,治多,青海省,632724
101150605,玉树藏族自治州,囊谦,青海省,632725
101150606,玉树藏族自治州,曲麻莱,青海省,632726
101150702,海西蒙古族藏族自治州,海西,青海省,632800
101150714,海西蒙古族藏族自治州,格尔木,青海省,632801
101150701,海西蒙古族藏族自治州,德令哈,青海省,632802
101150712,海西蒙古族藏族自治州,茫崖,青海省,632803
101150709,海西蒙古族藏族自治州,乌兰,青海省,632821
101150715,海西蒙古族藏族自治州,都兰,青海省,632822
101150708,海西蒙古族藏族自治州,天峻,青海省,632823
101170101,银川市,银川,宁夏回族自治区,640100
101170105,银川市,兴庆,宁夏回族自治区,640104
101170106,银川市,西夏,宁夏回族自治区,640105
101170107,银川市,金凤,宁夏回族自治区,640106
101170102,银川市,永宁,宁夏回族自治区,640121
101170104,银川市,贺兰,宁夏回族自治区,640122
101170103,银川市,灵武,宁夏回族自治区,640181
101170201,石嘴山市,石嘴山,宁夏回族自治区,640200
101170205,石嘴山市,大武口,宁夏回族自治区,640202
101170202,石嘴山市,惠农,宁夏回族自治区,640205
101170203,石嘴山市,平罗,宁夏回族自治区,640221
101170301,吴忠市,吴忠,宁夏回族自治区,640300
101170304,吴忠市,利通,宁夏回族自治区,640302
101170305,吴忠市,红寺堡,宁夏回族自治区,640303
101170303,吴忠市,盐池,宁夏回族自治区,640323
101170302,吴忠市,同心,宁夏回族自治区,640324
101170306,吴忠市,青铜峡,宁夏回族自治区,640381
101170401,固原市,固原,宁夏回族自治区,640400
101170405,固原市,原州,宁夏回族自治区,640402
101170402,固原市,西吉,宁夏回族自治区,640422
101170403,固原市,隆德,宁夏回族自治区,640423
101170404,固原市,泾源,宁夏回族自治区,640424
101170406,固原市,彭阳,宁夏回族自治区,640425
101170501,中卫市,中卫,宁夏回族自治区,640500
101170503,中卫市,沙坡头,宁夏回族自治区,640502
101170502,中卫市,中宁,宁夏回族自治区,640521
101170504,中卫市,海原,宁夏回族自治区,640522
101130101,乌鲁木齐市,乌鲁木齐,新疆维吾尔自治区,650100
101130102,乌鲁木齐市,天山,新疆维吾尔自治区,650102
101130104,乌鲁木齐市,沙依巴克,新疆维吾尔自治区,650103
101130106,乌鲁木齐市,新市区,新疆维吾尔自治区,650104
101130107,乌鲁木齐市,水磨沟,新疆维吾尔自治区,650105
101130111,乌鲁木齐市,头屯河,新疆维吾尔自治区,650106
101130105,乌鲁木齐市,达坂城,新疆维吾尔自治区,650107
101130112,乌鲁木齐市,米东,新疆维吾尔自治区,650109
101130113,乌鲁木齐市,乌鲁木齐县,新疆维吾尔自治区,650121
101130201,克拉玛依市,克拉玛依,新疆维吾尔自治区,650200
101130204,克拉玛依市,独山子,新疆维吾尔自治区,650202
101130230,克拉玛依市,克拉玛依区,新疆维吾尔自治区,650203
101130203,克拉玛依市,白碱滩,新疆维吾尔自治区,650204
101130202,克拉玛依市,乌尔禾,新疆维吾尔自治区,650205
101130501,吐鲁番市,吐鲁番,新疆维吾尔自治区,650400
101130503,吐鲁番市,高昌,新疆维吾尔自治区,650402
101130504,吐鲁番市,鄯善,新疆维吾尔自治区,650421
101130502,吐鲁番市,托克逊,新疆维吾尔自治区,650422
101131201,哈密市,哈密,新疆维吾尔自治区,650500
101131202,哈密市,伊州,新疆维吾尔自治区,650502
101131203,哈密市,巴里坤,新疆维吾尔自治区,650521
101131204,哈密市,伊吾,新疆维吾尔自治区,650522
101130401,昌吉回族自治州,昌吉,新疆维吾尔自治区,652300
101130430,昌吉回族自治州,昌吉市,新疆维吾尔自治区,652301
101130404,昌吉回族自治州,阜康,新疆维吾尔自治区,652302
101130402,昌吉回族自治州,呼图壁,新疆维吾尔自治区,652323
101130407,昌吉回族自治州,玛纳斯,新疆维吾尔自治区,652324
101130406,昌吉回族自治州,奇台,新疆维吾尔自治区,652325
101130405,昌吉回族自治州,吉木萨尔,新疆维吾尔自治区,652327
101130408,昌吉回族自治州,木垒,新疆维吾尔自治区,652328
101131604,博尔塔拉蒙古自治州,博尔塔拉,新疆维吾尔自治区,652700
101131601,博尔塔拉蒙古自治州,博乐,新疆维吾尔自治区,652701
101131606,博尔塔拉蒙古自治州,阿拉山口,新疆维吾尔自治区,652702
101131603,博尔塔拉蒙古自治州,精河,新疆维吾尔自治区,652722
101131602,博尔塔拉蒙古自治州,温泉,新疆维吾尔自治区,652723
101130609,巴音郭楞蒙古自治州,巴音郭楞,新疆维吾尔自治区,652800
101130601,巴音郭楞蒙古自治州,库尔勒,新疆维吾尔自治区,652801
101130602,巴音郭楞蒙古自治州,轮台,新疆维吾尔自治区,652822
101130603,巴音郭楞蒙古自治州,尉犁,新疆维吾尔自治区,652823
101130604,巴音郭楞蒙古自治州,若羌,新疆维吾尔自治区,652824
101130605,巴音郭楞蒙古自治州,且末,新疆维吾尔自治区,652825
101130607,巴音郭楞蒙古自治州,焉耆,新疆维吾尔自治区,652826
101130606,巴音郭楞蒙古自治州,和静,新疆维吾尔自治区,652827
101130608,巴音郭楞蒙古自治州,和硕,新疆维吾尔自治区,652828
101130612,巴音郭楞蒙古自治州,博湖,新疆维吾尔自治区,652829
101130801,阿克苏地区,阿克苏,新疆维吾尔自治区,652900
101130830,阿克苏地区,阿克苏市,新疆维吾尔自治区,652901
101130803,阿克苏地区,温宿,新疆维吾尔自治区,652922
101130807,阿克苏地区,库车,新疆维吾尔自治区,652902
101130806,阿克苏地区,沙雅,新疆维吾尔自治区,652924
101130805,阿克苏地区,新和,新疆维吾尔自治区,652925
101130804,阿克苏地区,拜城,新疆维吾尔自治区,652926
101130802,阿克苏地区,乌什,新疆维吾尔自治区,652927
101130809,阿克苏地区,阿瓦提,新疆维吾尔自治区,652928
101130808,阿克苏地区,柯坪,新疆维吾尔自治区,652929
101131505,克孜勒苏柯尔克孜自治州,克孜勒苏,新疆维吾尔自治区,653000
101131501,克孜勒苏柯尔克孜自治州,阿图什,新疆维吾尔自治区,653001
101131503,克孜勒苏柯尔克孜自治州,阿克陶,新疆维吾尔自治区,653022
101131504,克孜勒苏柯尔克孜自治州,阿合奇,新疆维吾尔自治区,653023
101131502,克孜勒苏柯尔克孜自治州,乌恰,新疆维吾尔自治区,653024
101130901,喀什地区,喀什,新疆维吾尔自治区,653100
101130930,喀什地区,喀什市,新疆维吾尔自治区,653101
101130911,喀什地区,疏附,新疆维吾尔自治区,653121
101130912,喀什地区,疏勒,新疆维吾尔自治区,653122
101130902,喀什地区,英吉沙,新疆维吾尔自治区,653123
101130907,喀什地区,泽普,新疆维吾尔自治区,653124
101130905,喀什地区,莎车,新疆维吾尔自治区,653125
101130906,喀什地区,叶城,新疆维吾尔自治区,653126
101130904,喀什地区,麦盖提,新疆维吾尔自治区,653127
101130909,喀什地区,岳普湖,新疆维吾尔自治区,653128
101130910,喀什地区,伽师,新疆维吾尔自治区,653129
101130908,喀什地区,巴楚,新疆维吾尔自治区,653130
101130903,喀什地区,塔什库尔干,新疆维吾尔自治区,653131
101131301,和田地区,和田,新疆维吾尔自治区,653200
101131330,和田地区,和田市,新疆维吾尔自治区,653201
101131331,和田地区,和田县,新疆维吾尔自治区,653221
101131304,和田地区,墨玉,新疆维吾尔自治区,653222
101131302,和田地区,皮山,新疆维吾尔自治区,653223
101131305,和田地区,洛浦,新疆维吾尔自治区,653224
101131303,和田地区,策勒,新疆维吾尔自治区,653225
101131307,和田地区,于田,新疆维吾尔自治区,653226
101131306,和田地区,民丰,新疆维吾尔自治区,653227
101131012,伊犁哈萨克自治州,伊犁,新疆维吾尔自治区,654000
101131001,伊犁哈萨克自治州,伊宁,新疆维吾尔自治区,654002
101131011,伊犁哈萨克自治州,奎屯,新疆维吾尔自治区,654003
101131010,伊犁哈萨克自治州,霍尔果斯,新疆维吾尔自治区,654004
101131004,伊犁哈萨克自治州,伊宁县,新疆维吾尔自治区,654021
101131002,伊犁哈萨克自治州,察布查尔,新疆维吾尔自治区,654022
101131009,伊犁哈萨克自治州,霍城,新疆维吾尔自治区,654023
101131005,伊犁哈萨克自治州,巩留,新疆维吾尔自治区,654024
101131006,伊犁哈萨克自治州,新源,新疆维吾尔自治区,654025
101131007,伊犁哈萨克自治州,昭苏,新疆维吾尔自治区,654026
101131008,伊犁哈萨克自治州,特克斯,新疆维吾尔自治区,654027
101131003,伊犁哈萨克自治州,尼勒克,新疆维吾尔自治区,654028
101131101,塔城地区,塔城,新疆维吾尔自治区,654200
101131130,塔城地区,塔城市,新疆维吾尔自治区,654201
101131106,塔城地区,乌苏,新疆维吾尔自治区,654202
101131103,塔城地区,额敏,新疆维吾尔自治区,654221
101131107,塔城地区,沙湾,新疆维吾尔自治区,654223
101131105,塔城地区,托里,新疆维吾尔自治区,654224
101131102,塔城地区,裕民,新疆维吾尔自治区,654225
101131104,塔城地区,和布克赛尔,新疆维吾尔自治区,654226
101131401,阿勒泰地区,阿勒泰,新疆维吾尔自治区,654300
101131430,阿勒泰地区,阿勒泰市,新疆维吾尔自治区,654301
101131406,阿勒泰地区,布尔津,新疆维吾尔自治区,654321
101131408,阿勒泰地区,富蕴,新疆维吾尔自治区,654322
101131407,阿勒泰地区,福海,新疆维吾尔自治区,654323
101131402,阿勒泰地区,哈巴河,新疆维吾尔自治区,654324
101131409,阿勒泰地区,青河,新疆维吾尔自治区,654325
101131405,阿勒泰地区,吉木乃,新疆维吾尔自治区,654326
101130301,石河子市,石河子,新疆维吾尔自治区,659001
101130701,阿拉尔市,阿拉尔,新疆维吾尔自治区,659002
101131701,图木舒克市,图木舒克,新疆维吾尔自治区,659003
101131801,五家渠市,五家渠,新疆维吾尔自治区,659004
101132101,北屯市,北屯,新疆维吾尔自治区,659005
101131901,铁门关市,铁门关,新疆维吾尔自治区,659006
101132201,双河市,双河,新疆维吾尔自治区,659007
101132301,可克达拉市,可克达拉,新疆维吾尔自治区,659008
101132401,昆玉市,昆玉,新疆维吾尔自治区,659009
101320100,香港,香港,香港,810100
101320101,香港,中西区,香港,810101
101320102,香港,东区,香港,810102
101320103,香港,九龙城区,香港,810103
101320104,香港,观塘区,香港,810104
101320105,香港,南区,香港,810105
101320106,香港,深水埗区,香港,810106
101320107,香港,湾仔区,香港,810107
101320108,香港,黄大仙区,香港,810108
101320109,香港,油尖旺区,香港,810109
101320110,香港,离岛区,香港,810110
101320111,香港,葵青区,香港,810111
101320119,香港,新界,香港,810111
101320112,香港,北区,香港,810112
101320113,香港,西贡区,香港,810113
101320114,香港,沙田区,香港,810114
101320115,香港,屯门区,香港,810115
101320116,香港,大埔区,香港,810116
101320117,香港,荃湾区,香港,810117
101320118,香港,元朗区,香港,810118
101330101,澳门,花王堂区,澳门,820001
101330102,澳门,望德堂区,澳门,820002
101330103,澳门,风顺堂区,澳门,820003
101330104,澳门,圣方济各堂区,澳门,820004
101330105,澳门,嘉模堂区,澳门,820005
101330106,澳门,大堂区,澳门,820006
101330107,澳门,路氹填海区,澳门,820007
101330108,澳门,花地玛堂区,澳门,820008
101330109,澳门,澳门,澳门,820010
101340113,台北市,台北,台湾省,710113
101340101,台北市,北投区,台湾省,710101
101340102,台北市,松山区,台湾省,710102
101340103,台北市,大同区,台湾省,710103
101340104,台北市,文山区,台湾省,710104
101340105,台北市,信义区,台湾省,710105
101340106,台北市,内湖区,台湾省,710106
101340107,台北市,中正区,台湾省,710107
101340108,台北市,万华区,台湾省,710108
101340109,台北市,中山区,台湾省,710109
101340110,台北市,士林区,台湾省,710110
101340111,台北市,南港区,台湾省,710111
101340112,台北市,大安区,台湾省,710112
101340239,高雄市,高雄,台湾省,710239
101340201,高雄市,小港区,台湾省,710201
101340202,高雄市,左营区,台湾省,710202
101340203,高雄市,大寮区,台湾省,710203
101340204,高雄市,那玛夏区,台湾省,710204
101340205,高雄市,旗津区,台湾省,710205
101340206,高雄市,弥陀区,台湾省,710206
101340207,高雄市,燕巢区,台湾省,710207
101340208,高雄市,大树区,台湾省,710208
101340209,高雄市,阿莲区,台湾省,710209
101340210,高雄市,楠梓区,台湾省,710210
101340211,高雄市,鸟松区,台湾省,710211
101340212,高雄市,苓雅区,台湾省,710212
101340213,高雄市,桥头区,台湾省,710213
101340214,高雄市,梓官区,台湾省,710214
101340215,高雄市,美浓区,台湾省,710215
101340216,高雄市,仁武区,台湾省,710216
101340217,高雄市,凤山区,台湾省,710217
101340218,高雄市,甲仙区,台湾省,710218
101340219,高雄市,茄萣区,台湾省,710219
101340220,高雄市,大社区,台湾省,710220
101340221,高雄市,前镇区,台湾省,710221
101340222,高雄市,茂林区,台湾省,710222
101340223,高雄市,湖内区,台湾省,710223
101340224,高雄市,六龟区,台湾省,710224
101340225,高雄市,林园区,台湾省,710225
101340226,高雄市,内门区,台湾省,710226
101340227,高雄市,鼓山区,台湾省,710227
101340228,高雄市,杉林区,台湾省,710228
101340229,高雄市,三民区,台湾省,710229
101340230,高雄市,前金区,台湾省,710230
101340231,高雄市,冈山区,台湾省,710231
101340232,高雄市,田寮区,台湾省,710232
101340233,高雄市,桃源区,台湾省,710233
101340234,高雄市,盐埕区,台湾省,710234
101340235,高雄市,旗山区,台湾省,710235
101340236,高雄市,永安区,台湾省,710236
101340237,高雄市,路竹区,台湾省,710237
101340238,高雄市,新兴区,台湾省,710238
101340330,新北市,新北市,台湾省,710330
101340301,新北市,八里区,台湾省,710301
101340302,新北市,三峡区,台湾省,710302
101340303,新北市,新庄区,台湾省,710303
101340304,新北市,坪林区,台湾省,710304
101340305,新北市,莺歌区,台湾省,710305
101340306,新北市,汐止区,台湾省,710306
101340307,新北市,深坑区,台湾省,710307
101340308,新北市,芦洲区,台湾省,710308
101340309,新北市,三芝区,台湾省,710309
101340310,新北市,三重区,台湾省,710310
101340311,新北市,平溪区,台湾省,710311
101340312,新北市,中和区,台湾省,710312
101340313,新北市,永和区,台湾省,710313
101340314,新北市,泰山区,台湾省,710314
101340315,新北市,土城区,台湾省,710315
101340316,新北市,石碇区,台湾省,710316
101340317,新北市,五股区,台湾省,710317
101340318,新北市,林口区,台湾省,710318
101340319,新北市,双溪区,台湾省,710319
101340320,新北市,树林区,台湾省,710320
101340321,新北市,板桥区,台湾省,710321
101340322,新北市,新店区,台湾省,710322
101340323,新北市,乌来区,台湾省,710323
101340324,新北市,贡寮区,台湾省,710324
101340325,新北市,金山区,台湾省,710325
101340326,新北市,万里区,台湾省,710326
101340327,新北市,淡水区,台湾省,710327
101340328,新北市,瑞芳区,台湾省,710328
101340329,新北市,石门区,台湾省,710329
101340430,台中市,台中市,台湾省,710430
101340401,台中市,东区,台湾省,710401
101340402,台中市,新社区,台湾省,710402
101340403,台中市,中区,台湾省,710403
101340404,台中市,南屯区,台湾省,710404
101340405,台中市,神冈区,台湾省,710405
101340406,台中市,沙鹿区,台湾省,710406
101340407,台中市,丰原区,台湾省,710407
101340408,台中市,大里区,台湾省,710408
101340409,台中市,龙井区,台湾省,710409
101340410,台中市,西区,台湾省,710410
101340411,台中市,南区,台湾省,710411
101340412,台中市,西屯区,台湾省,710412
101340413,台中市,太平区,台湾省,710413
101340414,台中市,北屯区,台湾省,710414
101340415,台中市,大雅区,台湾省,710415
101340416,台中市,石冈区,台湾省,710416
101340417,台中市,北区,台湾省,710417
101340418,台中市,大甲区,台湾省,710418
101340419,台中市,梧栖区,台湾省,710419
101340420,台中市,东势区,台湾省,710420
101340421,台中市,和平区,台湾省,710421
101340422,台中市,雾峰区,台湾省,710422
101340423,台中市,乌日区,台湾省,710423
101340424,台中市,后里区,台湾省,710424
101340425,台中市,潭子区,台湾省,710425
101340426,台中市,大肚区,台湾省,710426
101340427,台中市,外埔区,台湾省,710427
101340428,台中市,清水区,台湾省,710428
101340429,台中市,大安区,台湾省,710429
101340538,台南市,台南市,台湾省,710538
101340501,台南市,安定区,台湾省,710501
101340502,台南市,大内区,台湾省,710502
101340503,台南市,东山区,台湾省,710503
101340504,台南市,下营区,台湾省,710504
101340505,台南市,山上区,台湾省,710505
101340506,台南市,永康区,台湾省,710506
101340507,台南市,新营区,台湾省,710507
101340508,台南市,白河区,台湾省,710508
101340509,台南市,盐水区,台湾省,710509
101340510,台南市,归仁区,台湾省,710510
101340511,台南市,龙崎区,台湾省,710511
101340512,台南市,关庙区,台湾省,710512
101340513,台南市,仁德区,台湾省,710513
101340514,台南市,学甲区,台湾省,710514
101340515,台南市,善化区,台湾省,710515
101340516,台南市,新市区,台湾省,710516
101340517,台南市,佳里区,台湾省,710517
101340518,台南市,新化区,台湾省,710518
101340519,台南市,西港区,台湾省,710519
101340520,台南市,麻豆区,台湾省,710520
101340521,台南市,安南区,台湾省,710521
101340522,台南市,后壁区,台湾省,710522
101340523,台南市,柳营区,台湾省,710523
101340524,台南市,玉井区,台湾省,710524
101340525,台南市,官田区,台湾省,710525
101340526,台南市,东区,台湾省,710526
101340527,台南市,六甲区,台湾省,710527
101340528,台南市,中西区,台湾省,710528
101340529,台南市,北区,台湾省,710529
101340530,台南市,楠西区,台湾省,710530
101340531,台南市,南化区,台湾省,710531
101340532,台南市,左镇区,台湾省,710532
101340533,台南市,南区,台湾省,710533
101340534,台南市,安平区,台湾省,710534
101340535,台南市,北门区,台湾省,710535
101340536,台南市,七股区,台湾省,710536
101340537,台南市,将军区,台湾省,710537
101340616,桃园市,桃园市,台湾省,710616
101340601,桃园市,平镇市,台湾省,710601
101340602,桃园市,杨梅市,台湾省,710602
101340603,桃园市,八德市,台湾省,710603
101340604,桃园市,桃园区,台湾省,710604
101340605,桃园市,龟山乡,台湾省,710605
101340606,桃园市,复兴乡,台湾省,710606
101340607,桃园市,芦竹乡,台湾省,710607
101340608,桃园市,观音乡,台湾省,710608
101340609,桃园市,龙潭乡,台湾省,710609
101340610,桃园市,大溪镇,台湾省,710610
101340611,桃园市,大园乡,台湾省,710611
101340612,桃园市,新屋乡,台湾省,710612
101340613,桃园市,中坜市,台湾省,710613
101340701,基隆市,基隆,台湾省,719001
101340801,新竹市,新竹市,台湾省,719002
101340901,嘉义市,嘉义市,台湾省,719003
101341001,新竹县,新竹县,台湾省,719004
101341101,宜兰县,宜兰县,台湾省,719005
101341201,苗栗县,苗栗县,台湾省,719006
101341301,彰化县,彰化县,台湾省,719007
101341401,云林县,云林县,台湾省,719008
101341501,南投县,南投县,台湾省,719009
101341601,嘉义县,嘉义县,台湾省,719010
101341701,屏东县,屏东县,台湾省,719011
101341801,台东县,台东县,台湾省,719012
101341901,花莲县,花莲县,台湾省,719013
101342001,澎湖县,澎湖县,台湾省,719014
